rankingNoteText,nonResponderText,nonResponder,act-avg,primaryPhoto,primaryPhotoThumb,sat-avg,enrollment,city,sortName,zip,rankingNoteCharacter,acceptance-rate,rankingDisplayScore,percent-receiving-aid,cost-after-aid,state,rankingSortRank,hs-gpa-avg,urlName,rankingDisplayName,rankingDisplayRank,ranking,xwalkId,rankingIsTied,isPublic,businessRepScore,tuition,engineeringRepScore,displayName,schoolType,region,aliasNames,rankingType,overallRank,institutionalControl,rankingMaxPossibleScore,rankingRankStatus,primaryKey
,,FALSE,32,https://www.usnews.com/img/college-photo_31291.jpg,https://www.usnews.com/img/college-photo_31291_170x170mm.jpg,1400,5400,Princeton,princetonuniversity,8544,,7,100,60,16793,NJ,1,3.9,princeton-university,National Universities,1,overall,186131,FALSE,TRUE,,47140,4.1,Princeton University,national-universities,,,national-universities,1,private,,ranked,2627
,,FALSE,32,https://www.usnews.com/img/college-photo_8866.jpg,https://www.usnews.com/img/college-photo_8866_170x170mm.jpg,1430,6710,Cambridge,harvarduniversity,2138,,5,98,55,16338,MA,2,4,harvard-university,National Universities,2,overall,166027,FALSE,TRUE,,48949,3.6,Harvard University,national-universities,,,national-universities,2,private,,ranked,2155
,,FALSE,32,https://www.usnews.com/dims4/USNEWS/5b128f0/17177859217/resize/800x540/quality/85/?url=www.usnews.com%2Fcmsmedia%2F97%2Fa2%2F70c471924fa1ae47788aafc952b4%2F160727-univerity-of-chicago-hero-stock.jpg,https://www.usnews.com/dims4/USNEWS/196469f/17177859217/resize/170x170/quality/85/?url=www.usnews.com%2Fcmsmedia%2F97%2Fa2%2F70c471924fa1ae47788aafc952b4%2F160727-univerity-of-chicago-hero-stock.jpg,1450,5941,Chicago,universityofchicago,60637,,8,96,42,27767,IL,3,4,university-of-chicago,National Universities,3,overall,144050,TRUE,TRUE,,54825,,University of Chicago,national-universities,,UChicago,national-universities,3,private,,ranked,1774
,,FALSE,32,https://www.usnews.com/dims4/USNEWS/60348dd/17177859217/resize/800x540/quality/85/?url=www.usnews.com%2Fcmsmedia%2F63%2F64%2Facbcdd85417f8f9d141439d4a505%2F160727-yale-university-hero-stock.jpg,https://www.usnews.com/dims4/USNEWS/1ca230f/17177859217/resize/170x170/quality/85/?url=www.usnews.com%2Fcmsmedia%2F63%2F64%2Facbcdd85417f8f9d141439d4a505%2F160727-yale-university-hero-stock.jpg,1420,5472,New Haven,yaleuniversity,6520,,6,96,50,18385,CT,3,,yale-university,National Universities,3,overall,130794,TRUE,TRUE,,51400,3.4,Yale University,national-universities,,,national-universities,3,private,,ranked,1426
,,FALSE,32,https://www.usnews.com/img/college-photo_19002.jpg,https://www.usnews.com/img/college-photo_19002_170x170mm.jpg,1430,6113,New York,columbiauniversity,10027,,6,95,48,21041,NY,5,,columbia-university,National Universities,5,overall,190150,TRUE,TRUE,,57208,3.8,Columbia University,national-universities,,,national-universities,5,private,,ranked,2707
,,FALSE,33,https://www.usnews.com/img/college-photo_6935.jpg,https://www.usnews.com/img/college-photo_6935_170x170mm.jpg,1460,4524,Cambridge,massachusettsinstituteoftechnology,2139,,8,95,58,20331,MA,5,,mit,National Universities,5,overall,166683,TRUE,TRUE,4.6,49892,4.9,Massachusetts Institute of Technology,national-universities,,MIT,national-universities,5,private,,ranked,2178
,,FALSE,31,https://www.usnews.com/img/college-photo_10369.jpg,https://www.usnews.com/img/college-photo_10369_170x170mm.jpg,1380,7034,Stanford,stanforduniversity,94305,,5,95,47,19296,CA,5,,stanford,National Universities,5,overall,243744,TRUE,TRUE,,49617,4.8,Stanford University,national-universities,,,national-universities,5,private,,ranked,1305
,,FALSE,32,https://www.usnews.com/img/college-photo_2743.jpg,https://www.usnews.com/img/college-photo_2743_170x170mm.jpg,1380,10019,Philadelphia,universityofpennsylvania,19104,,9,93,47,25441,PA,8,3.9,university-of-pennsylvania,National Universities,8,overall,215062,FALSE,TRUE,4.8,53534,3.6,University of Pennsylvania,national-universities,,UPenn,national-universities,8,private,,ranked,3378
,,FALSE,31,https://www.usnews.com/dims4/USNEWS/7e5b5e0/17177859217/resize/800x540/quality/85/?url=www.usnews.com%2Fcmsmedia%2F57%2F74%2Fc95b0bcc49d9972533add4f11e13%2F160728-duke-university-hero-stock.jpg,https://www.usnews.com/dims4/USNEWS/3f12795/17177859217/resize/170x170/quality/85/?url=www.usnews.com%2Fcmsmedia%2F57%2F74%2Fc95b0bcc49d9972533add4f11e13%2F160728-duke-university-hero-stock.jpg,1380,6609,Durham,dukeuniversity,27708,,11,92,41,23374,NC,9,,duke-university,National Universities,9,overall,198419,FALSE,TRUE,,53744,3.7,Duke University,national-universities,,,national-universities,9,private,,ranked,2920
,,FALSE,34,https://www.usnews.com/img/college-photo_93.jpg,https://www.usnews.com/img/college-photo_93_170x170mm.jpg,1510,979,Pasadena,californiainstituteoftechnology,91125,,8,91,51,23973,CA,10,,cal-tech,National Universities,10,overall,110404,FALSE,TRUE,,49908,4.6,California Institute of Technology,national-universities,,CalTech Cal Tech,national-universities,10,private,,ranked,1131
,,FALSE,30,https://www.usnews.com/img/college-photo_33512.jpg,https://www.usnews.com/img/college-photo_33512_170x170mm.jpg,1350,4310,Hanover,dartmouthcollege,3755,,11,90,50,23312,NH,11,,dartmouth-college,National Universities,11,overall,182670,TRUE,TRUE,,52950,3.2,Dartmouth College,national-universities,,,national-universities,11,private,,ranked,2573
,,FALSE,32,https://www.usnews.com/img/college-photo_9422.jpg,https://www.usnews.com/img/college-photo_9422_170x170mm.jpg,1420,6117,Baltimore,johnshopkinsuniversity,21218,,12,90,45,30067,MD,11,3.9,jhu,National Universities,11,overall,162928,TRUE,TRUE,,52170,3.9,Johns Hopkins University,national-universities,,JHU,national-universities,11,private,,ranked,2077
,,FALSE,32,https://www.usnews.com/img/college-photo_3277.jpg,https://www.usnews.com/img/college-photo_3277_170x170mm.jpg,1400,8353,Evanston,northwesternuniversity,60208,,11,90,43,31087,IL,11,,northwestern,National Universities,11,overall,147767,TRUE,TRUE,,52678,4,Northwestern University,national-universities,,,national-universities,11,private,,ranked,1739
,,FALSE,31,https://www.usnews.com/img/college-photo_26074.jpg,https://www.usnews.com/img/college-photo_26074_170x170mm.jpg,1370,6926,Providence,brownuniversity,2912,,9,86,41,24482,RI,14,,brown-university,National Universities,14,overall,217156,TRUE,TRUE,,53419,3.3,Brown University,national-universities,,,national-universities,14,private,,ranked,3401
,,FALSE,31,https://www.usnews.com/img/college-photo_73.jpg,https://www.usnews.com/img/college-photo_73_170x170mm.jpg,1330,14566,Ithaca,cornelluniversity,14853,,14,86,44,28068,NY,14,,cornell-university,National Universities,14,overall,190415,TRUE,TRUE,4.2,52853,4.2,Cornell University,national-universities,,,national-universities,14,private,,ranked,2711
,,FALSE,32,https://www.usnews.com/img/college-photo_5187.jpg,https://www.usnews.com/img/college-photo_5187_170x170mm.jpg,1410,3893,Houston,riceuniversity,77251,,15,86,37,23996,TX,14,,rice,National Universities,14,overall,227757,TRUE,TRUE,,45608,3.7,Rice University,national-universities,,,national-universities,14,private,,ranked,3604
,,FALSE,32,https://www.usnews.com/img/college-photo_313.jpg,https://www.usnews.com/img/college-photo_313_170x170mm.jpg,1420,6871,Nashville,vanderbiltuniversity,37240,,11,86,46,23323,TN,14,3.8,vanderbilt,National Universities,14,overall,221999,TRUE,TRUE,,47664,3.4,Vanderbilt University,national-universities,,,national-universities,14,private,,ranked,3535
,,FALSE,32,https://www.usnews.com/img/college-photo_154.jpg,https://www.usnews.com/img/college-photo_154_170x170mm.jpg,1350,8530,Notre Dame,universityofnotredame,46556,,19,85,47,29653,IN,18,,notre-dame,National Universities,18,overall,152080,TRUE,TRUE,4.1,51505,3.3,University of Notre Dame,national-universities,,Notre Dame,national-universities,18,private,,ranked,1840
,,FALSE,32,https://www.usnews.com/img/college-photo_826.jpg,https://www.usnews.com/img/college-photo_826_170x170mm.jpg,1400,7540,St. Louis,washingtonuniversityinstlouis,63130,,17,85,41,29245,MO,18,,washington-university-st-louis,National Universities,18,overall,179867,TRUE,TRUE,4,51533,3.3,Washington University in St. Louis,national-universities,,WashU Washington University in St Louis Washington University in Saint Louis,national-universities,18,private,,ranked,2520
,,FALSE,30,https://www.usnews.com/img/college-photo_27270.jpg,https://www.usnews.com/img/college-photo_27270_170x170mm.jpg,1320,7453,Washington,georgetownuniversity,20057,,17,80,34,29667,DC,20,,georgetown-university,National Universities,20,overall,131496,FALSE,TRUE,3.8,52300,,Georgetown University,national-universities,,,national-universities,20,private,,ranked,1445
,,FALSE,30,https://www.usnews.com/img/college-photo_33208.jpg,https://www.usnews.com/img/college-photo_33208_170x170mm.jpg,1290,6861,Atlanta,emoryuniversity,30322,,25,78,42,24264,GA,21,3.7,emory-university,National Universities,21,overall,139658,TRUE,TRUE,3.8,49392,,Emory University,national-universities,,,national-universities,21,private,,ranked,1564
,,FALSE,29,https://www.usnews.com/img/college-photo_1993.jpg,https://www.usnews.com/img/college-photo_1993_170x170mm.jpg,1300,29311,Berkeley,universityofcaliforniaberkeley,94720,,16,78,23,49614,CA,21,3.9,uc-berkeley,National Universities,21,overall,110635,TRUE,TRUE,4.5,42112,4.7,University of California--Berkeley,national-universities,,UC Berkeley Cal Berkeley University of California Berkeley,national-universities,21,public,,ranked,1312
,,FALSE,25,https://www.usnews.com/img/college-photo_5631.jpg,https://www.usnews.com/img/college-photo_5631_170x170mm.jpg,1160,30873,Los Angeles,universityofcalifornialosangeles,90095,,18,78,15,42896,CA,21,3.9,ucla,National Universities,21,overall,110662,TRUE,TRUE,,41270,3.8,University of California--Los Angeles,national-universities,,UCLA University of California Los Angeles,national-universities,21,public,,ranked,1315
,,FALSE,30,https://www.usnews.com/img/college-photo_11612.jpg,https://www.usnews.com/img/college-photo_11612_170x170mm.jpg,1280,18794,Los Angeles,universityofsoutherncalifornia,90089,,17,78,33,33112,CA,21,3.7,usc,National Universities,21,overall,123961,TRUE,TRUE,4.1,54259,3.6,University of Southern California,national-universities,,USC Southern Cal,national-universities,21,private,,ranked,1328
,,FALSE,31,https://www.usnews.com/img/college-photo_33151.jpg,https://www.usnews.com/img/college-photo_33151_170x170mm.jpg,1380,6673,Pittsburgh,carnegiemellonuniversity,15213,,22,76,40,33550,PA,25,3.8,carnegie-mellon-university,National Universities,25,overall,211440,TRUE,TRUE,4.2,53910,4.3,Carnegie Mellon University,national-universities,,CMU,national-universities,25,private,,ranked,3242
,,FALSE,29,https://www.usnews.com/dims4/USNEWS/f259df6/17177859217/resize/800x540/quality/85/?url=www.usnews.com%2Fcmsmedia%2F15%2Ff0%2Ffb426fc84d1298c35d1d9ef1e694%2F160727-university-of-virginia-hero-stock.jpg,https://www.usnews.com/dims4/USNEWS/b7533b9/17177859217/resize/170x170/quality/85/?url=www.usnews.com%2Fcmsmedia%2F15%2Ff0%2Ffb426fc84d1298c35d1d9ef1e694%2F160727-university-of-virginia-hero-stock.jpg,1240,16331,Charlottesville,universityofvirginia,22904,,30,76,28,28079,VA,25,4,uva,National Universities,25,overall,234076,TRUE,TRUE,4.2,46975,3.4,University of Virginia,national-universities,,UVA,national-universities,25,public,,ranked,6968
,,FALSE,28,https://www.usnews.com/img/college-photo_11989.jpg,https://www.usnews.com/img/college-photo_11989_170x170mm.jpg,1240,4955,Winston-Salem,wakeforestuniversity,27109,,30,75,30,24241,NC,27,,wake-forest,National Universities,27,overall,199847,FALSE,TRUE,3.4,51400,,Wake Forest University,national-universities,,,national-universities,27,private,,ranked,2978
,,FALSE,29,https://www.usnews.com/img/college-photo_25612.jpg,https://www.usnews.com/img/college-photo_25612_170x170mm.jpg,1310,28983,Ann Arbor,universityofmichiganannarbor,48109,,29,74,25,32856,MI,28,3.8,university-of-michigan,National Universities,28,overall,170976,FALSE,TRUE,4.5,47476,4.4,University of Michigan--Ann Arbor,national-universities,,UM University of Michigan Ann Arbor,national-universities,28,public,,ranked,9092
,,FALSE,31,https://www.usnews.com/img/college-photo_8428.jpg,https://www.usnews.com/img/college-photo_8428_170x170mm.jpg,1370,5508,Medford,tuftsuniversity,2155,,14,72,34,27034,MA,29,,tufts-university,National Universities,29,overall,168148,FALSE,TRUE,,54318,3,Tufts University,national-universities,,,national-universities,29,private,,ranked,2219
,,FALSE,29,https://www.usnews.com/img/college-photo_6422.jpg,https://www.usnews.com/img/college-photo_6422_170x170mm.jpg,1250,26135,New York,newyorkuniversity,10012,,32,71,46,41783,NY,30,3.6,nyu,National Universities,30,overall,193900,TRUE,TRUE,4.3,50464,2.9,New York University,national-universities,,NYU,national-universities,30,private,,ranked,2785
,,FALSE,27,https://www.usnews.com/dims4/USNEWS/a3855fb/17177859217/resize/800x540/quality/85/?url=www.usnews.com%2Fcmsmedia%2F18%2F54%2F4235c28f487bbf38ac32dfd87b82%2F160727-university-of-north-carolina-chapel-hill-hero-stock.jpg,https://www.usnews.com/dims4/USNEWS/f737ac3/17177859217/resize/170x170/quality/85/?url=www.usnews.com%2Fcmsmedia%2F18%2F54%2F4235c28f487bbf38ac32dfd87b82%2F160727-university-of-north-carolina-chapel-hill-hero-stock.jpg,1190,18523,Chapel Hill,universityofnorthcarolinachapelhill,27599,,27,71,41,17815,NC,30,4,unc,National Universities,30,overall,199120,TRUE,TRUE,4.2,34588,,University of North Carolina--Chapel Hill,national-universities,,UNC University of North Carolina Chapel Hill,national-universities,30,public,,ranked,2974
,,FALSE,30,https://www.usnews.com/img/college-photo_16949.jpg,https://www.usnews.com/img/college-photo_16949_170x170mm.jpg,1260,9309,Chestnut Hill,bostoncollege,2467,,31,70,35,30170,MA,32,,boston-college,National Universities,32,overall,164924,TRUE,TRUE,3.6,53346,,Boston College,national-universities,,BC,national-universities,32,private,,ranked,2128
,,FALSE,28,https://www.usnews.com/img/college-photo_29563.jpg,https://www.usnews.com/img/college-photo_29563_170x170mm.jpg,1250,6276,Williamsburg,collegeofwilliamandmary,23187,,37,70,21,42153,VA,32,,william-and-mary,National Universities,32,overall,231624,TRUE,TRUE,3.3,43099,,College of William and Mary,national-universities,,William & Mary,national-universities,32,public,,ranked,3705
,,FALSE,29,https://www.usnews.com/img/college-photo_20366.jpg,https://www.usnews.com/img/college-photo_20366_170x170mm.jpg,1270,3608,Waltham,brandeisuniversity,2454,,33,68,47,29288,MA,34,3.9,brandeis-university,National Universities,34,overall,165015,TRUE,TRUE,2.9,53582,,Brandeis University,national-universities,,,national-universities,34,private,,ranked,2133
,,FALSE,30,https://www.usnews.com/img/college-photo_17123.jpg,https://www.usnews.com/img/college-photo_17123_170x170mm.jpg,1320,15489,Atlanta,georgiainstituteoftechnology,30332,,26,68,15,39518,GA,34,3.9,georgia-tech,National Universities,34,overall,139755,TRUE,TRUE,3.5,33014,4.6,Georgia Institute of Technology,national-universities,,Georgia Tech,national-universities,34,public,,ranked,1569
,,FALSE,29,https://www.usnews.com/img/college-photo_2965.jpg,https://www.usnews.com/img/college-photo_2965_170x170mm.jpg,1250,6386,Rochester,universityofrochester,14627,,38,68,51,28476,NY,34,,university-of-rochester,National Universities,34,overall,195030,TRUE,TRUE,,52020,2.7,University of Rochester,national-universities,,,national-universities,34,private,,ranked,2894
,,FALSE,28,https://www.usnews.com/img/college-photo_5142.jpg,https://www.usnews.com/img/college-photo_5142_170x170mm.jpg,1220,17944,Boston,bostonuniversity,2215,,29,67,36,34539,MA,37,3.6,boston-university,National Universities,37,overall,164988,TRUE,TRUE,3.4,52082,3.1,Boston University,national-universities,,BU,national-universities,37,private,,ranked,2130
,,FALSE,30,https://www.usnews.com/img/college-photo_8800.jpg,https://www.usnews.com/img/college-photo_8800_170x170mm.jpg,1280,5152,Cleveland,casewesternreserveuniversity,44106,,35,67,48,35248,OH,37,,case-western-reserve-university,National Universities,37,overall,201645,TRUE,TRUE,3.5,47500,3.3,Case Western Reserve University,national-universities,,,national-universities,37,private,,ranked,3024
,,FALSE,25,https://www.usnews.com/img/college-photo_1502.jpg,https://www.usnews.com/img/college-photo_1502_170x170mm.jpg,1140,21574,Santa Barbara,universityofcaliforniasantabarbara,93106,,36,67,8,44849,CA,37,4,ucsb,National Universities,37,overall,110705,TRUE,TRUE,,42423,3.4,University of California--Santa Barbara,national-universities,,UCSB UC Santa Barbara University of California Santa Barbara,national-universities,37,public,,ranked,1320
,,FALSE,31,https://www.usnews.com/img/college-photo_31421.jpg,https://www.usnews.com/img/college-photo_31421_170x170mm.jpg,1330,13473,Boston,northeasternuniversity,2115,,29,66,34,38521,MA,40,,northeastern-university,National Universities,40,overall,167358,TRUE,TRUE,3.1,49497,3.1,Northeastern University,national-universities,,,national-universities,40,private,,ranked,2199
,,FALSE,29,https://www.usnews.com/img/college-photo_31240.jpg,https://www.usnews.com/img/college-photo_31240_170x170mm.jpg,1250,6377,New Orleans,tulaneuniversity,70118,,26,66,31,35111,LA,40,3.5,tulane-university,National Universities,40,overall,160755,TRUE,TRUE,3.2,52960,2.4,Tulane University,national-universities,,,national-universities,40,private,,ranked,2029
,,FALSE,28,https://www.usnews.com/img/college-photo_3861.jpg,https://www.usnews.com/img/college-photo_3861_170x170mm.jpg,1280,6265,Troy,rensselaerpolytechnicinstitute,12180,,44,65,61,35125,NY,42,3.9,rpi,National Universities,42,overall,194824,TRUE,TRUE,3.1,52305,3.5,Rensselaer Polytechnic Institute,national-universities,,RPI,national-universities,42,private,,ranked,2803
,,FALSE,,https://www.usnews.com/img/college-photo_4677.jpg,https://www.usnews.com/img/college-photo_4677_170x170mm.jpg,1060,27331,Irvine,universityofcaliforniairvine,92697,,41,65,6,43506,CA,42,4,uc-irvine,National Universities,42,overall,110653,TRUE,TRUE,3.5,43530,3.3,University of California--Irvine,national-universities,,UC Irvine UCI University of California Irvine,national-universities,42,public,,ranked,1314
,,FALSE,25,https://www.usnews.com/img/college-photo_19990.jpg,https://www.usnews.com/img/college-photo_19990_170x170mm.jpg,1140,28127,La Jolla,universityofcaliforniasandiego,92093,,36,65,7,42933,CA,42,4,ucsd,National Universities,42,overall,110680,TRUE,TRUE,3.2,44197,3.7,University of California--San Diego,national-universities,,UCSD University of California San Diego,national-universities,42,public,,ranked,1317
,,FALSE,27,https://www.usnews.com/img/college-photo_33594.jpg,https://www.usnews.com/img/college-photo_33594_170x170mm.jpg,1180,34554,Gainesville,universityofflorida,32611,,46,65,20,36825,FL,42,4,university-of-florida,National Universities,42,overall,134130,TRUE,TRUE,3.6,28658,3.4,University of Florida,national-universities,,,national-universities,42,public,,ranked,1535
,,FALSE,29,https://www.usnews.com/img/college-photo_17635.jpg,https://www.usnews.com/img/college-photo_17635_170x170mm.jpg,1230,5080,Bethlehem,lehighuniversity,18015,,26,64,38,25376,PA,46,,lehigh-university,National Universities,46,overall,213543,TRUE,TRUE,2.9,50740,3.2,Lehigh University,national-universities,,,national-universities,46,private,,ranked,3289
,,FALSE,26,https://www.usnews.com/img/college-photo_6515.jpg,https://www.usnews.com/img/college-photo_6515_170x170mm.jpg,1110,3542,Malibu,pepperdineuniversity,90263,,37,64,51,32416,CA,46,3.6,pepperdine-university,National Universities,46,overall,121150,TRUE,TRUE,3.2,51992,,Pepperdine University,national-universities,,,national-universities,46,private,,ranked,1264
,,FALSE,24,https://www.usnews.com/img/college-photo_9832.jpg,https://www.usnews.com/img/college-photo_9832_170x170mm.jpg,1050,29546,Davis,universityofcaliforniadavis,95616,,42,64,9,44075,CA,46,4,uc-davis,National Universities,46,overall,110644,TRUE,TRUE,,42396,3.5,University of California--Davis,national-universities,,UC Davis University of California Davis,national-universities,46,public,,ranked,1313
,,FALSE,28,https://www.usnews.com/img/college-photo_11206.jpg,https://www.usnews.com/img/college-photo_11206_170x170mm.jpg,1210,10849,Coral Gables,universityofmiami,33124,,38,64,33,34479,FL,46,3.6,university-of-miami,National Universities,46,overall,135726,TRUE,TRUE,3.1,48484,2.5,University of Miami,national-universities,,,national-universities,46,private,,ranked,1536
,,FALSE,27,https://www.usnews.com/dims4/USNEWS/053ddc4/17177859217/resize/800x540/quality/85/?url=www.usnews.com%2Fcmsmedia%2Fd8%2Fdf%2Fb5b3d7b14e05a69c4dece73d9056%2F160727-university-of-wisconsin-madison-hero-stock.jpg,https://www.usnews.com/dims4/USNEWS/c10b577/17177859217/resize/170x170/quality/85/?url=www.usnews.com%2Fcmsmedia%2Fd8%2Fdf%2Fb5b3d7b14e05a69c4dece73d9056%2F160727-university-of-wisconsin-madison-hero-stock.jpg,1234,31710,Madison,universityofwisconsinmadison,53706,,53,64,16,36113,WI,46,3.8,university-of-wisconsin,National Universities,46,overall,240444,TRUE,TRUE,3.8,34782,3.9,University of Wisconsin--Madison,national-universities,,University of Wisconsin Madison,national-universities,46,public,,ranked,3895
,,FALSE,30,https://www.usnews.com/img/college-photo_32097.jpg,https://www.usnews.com/img/college-photo_32097_170x170mm.jpg,1220,6999,Villanova,villanovauniversity,19085,,44,64,44,35459,PA,46,3.7,villanova,National Universities,46,overall,216597,TRUE,TRUE,3.2,51434,2.5,Villanova University,national-universities,,,national-universities,46,private,,ranked,3388
,,FALSE,25,https://www.usnews.com/img/college-photo_5817.jpg,https://www.usnews.com/img/college-photo_5817_170x170mm.jpg,1090,41359,University Park,pennsylvaniastateuniversityuniversitypark,16802,,56,63,14,41789,PA,52,3.6,penn-state,National Universities,52,overall,214777,TRUE,TRUE,3.7,33664,3.7,Pennsylvania State University--University Park,national-universities,,Penn State Pennsylvania State University University Park,national-universities,52,public,,ranked,6965
,,FALSE,26,https://www.usnews.com/img/college-photo_12941.jpg,https://www.usnews.com/img/college-photo_12941_170x170mm.jpg,1280,33932,Champaign,universityofillinoisurbanachampaign,61820,,60,63,9,35977,IL,52,,uiuc,National Universities,52,overall,145637,TRUE,TRUE,3.8,31988,4.4,University of Illinois--Urbana-Champaign,national-universities,,University of Illinois Urbana Champaign,national-universities,52,public,,ranked,1775
,,FALSE,27,https://www.usnews.com/img/college-photo_21645.jpg,https://www.usnews.com/img/college-photo_21645_170x170mm.jpg,1160,45831,Columbus,ohiostateuniversitycolumbus,43210,,54,62,9,37032,OH,54,,ohio-state,National Universities,54,overall,204796,TRUE,TRUE,3.8,29659,3.5,Ohio State University--Columbus,national-universities,,OSU  Ohio State University Columbus,national-universities,54,public,,ranked,6883
,,FALSE,26,https://www.usnews.com/img/college-photo_145.jpg,https://www.usnews.com/img/college-photo_145_170x170mm.jpg,1140,27951,Athens,universityofgeorgia,30602,,54,62,13,30943,GA,54,4,university-of-georgia,National Universities,54,overall,139959,TRUE,TRUE,3.6,30392,2.3,University of Georgia,national-universities,,UGA,national-universities,54,public,,ranked,1598
,,FALSE,27,https://www.usnews.com/img/college-photo_25925.jpg,https://www.usnews.com/img/college-photo_25925_170x170mm.jpg,1180,11504,Washington,georgewashingtonuniversity,20052,,40,61,43,37996,DC,56,,gwu,National Universities,56,overall,131469,TRUE,TRUE,3.3,53518,2.6,George Washington University,national-universities,,GW GWU,national-universities,56,private,,ranked,1444
,,FALSE,25,https://www.usnews.com/dims4/USNEWS/75e5b60/17177859217/resize/800x540/quality/85/?url=www.usnews.com%2Fcmsmedia%2Ff5%2Fdc%2F43629c7a45e9ada232646cba0bec%2F160728-purdue-university-hero-stock.jpg,https://www.usnews.com/dims4/USNEWS/6a28209/17177859217/resize/170x170/quality/85/?url=www.usnews.com%2Fcmsmedia%2Ff5%2Fdc%2F43629c7a45e9ada232646cba0bec%2F160728-purdue-university-hero-stock.jpg,1080,30043,West Lafayette,purdueuniversitywestlafayette,47907,,56,61,16,28383,IN,56,3.7,purdue,National Universities,56,overall,243780,TRUE,TRUE,3.6,28804,4.3,Purdue University--West Lafayette,national-universities,,Purdue University West Lafayette Purdue University West Lafayette,national-universities,56,public,,ranked,1825
,,FALSE,26,https://www.usnews.com/img/college-photo_18368.jpg,https://www.usnews.com/img/college-photo_18368_170x170mm.jpg,1130,19324,Storrs,universityofconnecticut,6269,,49,61,33,37427,CT,56,,uconn,National Universities,56,overall,129020,TRUE,TRUE,3.2,36948,2.9,University of Connecticut,national-universities,,UConn,national-universities,56,public,,ranked,29013
,,FALSE,26,https://www.usnews.com/img/college-photo_6552.jpg,https://www.usnews.com/img/college-photo_6552_170x170mm.jpg,1140,40168,Austin,universityoftexasaustin,78712,,40,61,7,40558,TX,56,,university-of-texas,National Universities,56,overall,228778,TRUE,TRUE,4.3,35766,4.1,University of Texas--Austin,national-universities,,UT Austin University of Texas Austin,national-universities,56,public,,ranked,3658
,,FALSE,26,https://www.usnews.com/img/college-photo_4740.jpg,https://www.usnews.com/img/college-photo_4740_170x170mm.jpg,1120,30933,Seattle,universityofwashington,98195,,45,61,20,47746,WA,56,3.8,university-of-washington,National Universities,56,overall,236948,TRUE,TRUE,3.6,35538,3.7,University of Washington,national-universities,,,national-universities,56,public,,ranked,3798
,,FALSE,27,https://www.usnews.com/img/college-photo_88.jpg,https://www.usnews.com/img/college-photo_88_170x170mm.jpg,1160,30979,Provo,brighamyounguniversityprovo,84602,,51,60,38,13186,UT,61,3.8,byu,National Universities,61,overall,230038,TRUE,TRUE,3.5,5460,2.6,Brigham Young University--Provo,national-universities,,BYU Provo Brigham Young University Provo,national-universities,61,private,,ranked,3670
,,FALSE,27,https://www.usnews.com/img/college-photo_12860.jpg,https://www.usnews.com/img/college-photo_12860_170x170mm.jpg,1170,9258,New York,fordhamuniversity,10023,,45,60,,,NY,61,3.6,fordham-university,National Universities,61,overall,191241,TRUE,TRUE,3.1,50601,,Fordham University,national-universities,,,national-universities,61,private,,ranked,2722
,,FALSE,28,https://www.usnews.com/img/college-photo_15195.jpg,https://www.usnews.com/img/college-photo_15195_170x170mm.jpg,1220,6521,Dallas,southernmethodistuniversity,75275,,49,60,24,47874,TX,61,3.7,smu,National Universities,61,overall,228246,TRUE,TRUE,3.2,52498,2.5,Southern Methodist University,national-universities,,SMU,national-universities,61,private,,ranked,3613
,,FALSE,25,https://www.usnews.com/img/college-photo_1554.jpg,https://www.usnews.com/img/college-photo_1554_170x170mm.jpg,1090,15218,Syracuse,syracuseuniversity,13244,,52,60,48,33912,NY,61,3.6,syracuse-university,National Universities,61,overall,196413,TRUE,TRUE,3.3,46755,2.6,Syracuse University,national-universities,,,national-universities,61,private,,ranked,2882
,,FALSE,28,https://www.usnews.com/img/college-photo_23577.jpg,https://www.usnews.com/img/college-photo_23577_170x170mm.jpg,1210,28472,College Park,universityofmarylandcollegepark,20742,,48,60,20,36786,MD,61,4,university-of-maryland,National Universities,61,overall,163286,TRUE,TRUE,3.7,33606,3.6,University of Maryland--College Park,national-universities,,UMD UMCP University of Maryland College Park,national-universities,61,public,,ranked,2103
,,FALSE,28,,,1200,4432,Worcester,worcesterpolytechnicinstitute,1609,,48,60,62,39995,MA,61,3.8,wpi,National Universities,61,overall,168421,TRUE,TRUE,2.6,48628,2.9,Worcester Polytechnic Institute,national-universities,,WPI,national-universities,61,private,,ranked,2233
,,FALSE,26,https://www.usnews.com/img/college-photo_23072.jpg,https://www.usnews.com/img/college-photo_23072_170x170mm.jpg,1150,18599,Clemson,clemsonuniversity,29634,,51,59,7,38923,SC,67,4,clemson-university,National Universities,67,overall,217882,FALSE,TRUE,3,35654,3,Clemson University,national-universities,,,national-universities,67,public,,ranked,3425
,,FALSE,27,https://www.usnews.com/dims4/USNEWS/2c70410/17177859217/resize/800x540/quality/85/?url=www.usnews.com%2Fcmsmedia%2Fa2%2F52%2F1fc8593741dbb315ac116e40eae4%2F160727-university-of-pittsburgh-hero-stock.jpg,https://www.usnews.com/dims4/USNEWS/bef9aad/17177859217/resize/170x170/quality/85/?url=www.usnews.com%2Fcmsmedia%2Fa2%2F52%2F1fc8593741dbb315ac116e40eae4%2F160727-university-of-pittsburgh-hero-stock.jpg,1190,19123,Pittsburgh,universityofpittsburgh,15260,,55,58,,,PA,68,4,university-of-pittsburgh,National Universities,68,overall,215293,FALSE,TRUE,3.5,30642,3.1,University of Pittsburgh,national-universities,,Pitt,national-universities,68,public,,ranked,3379
,,FALSE,26,,,1150,7901,Washington,americanuniversity,20016,,26,57,46,36076,DC,69,3.7,american-university,National Universities,69,overall,131159,TRUE,TRUE,2.9,46615,,American University,national-universities,,,national-universities,69,private,,ranked,1434
,,FALSE,,https://www.usnews.com/img/college-photo_10352.jpg,https://www.usnews.com/img/college-photo_10352_170x170mm.jpg,1110,36168,Piscataway,rutgersuniversitynewbrunswick,8854,,57,57,13,40121,NJ,69,,rutgers-new-brunswick,National Universities,69,overall,186380,TRUE,TRUE,3,30023,3.1,Rutgers University--New Brunswick,national-universities,,"Rutgers University Rutgers, the State University of New Jersey New Brunswick",national-universities,69,public,,ranked,6964
,,FALSE,29,https://www.usnews.com/img/college-photo_26182.jpg,https://www.usnews.com/img/college-photo_26182_170x170mm.jpg,1260,3021,Hoboken,stevensinstituteoftechnology,7030,,39,57,40,51810,NJ,69,3.8,stevens-institute-of-technology,National Universities,69,overall,186867,TRUE,TRUE,2.5,50554,2.7,Stevens Institute of Technology,national-universities,,,national-universities,69,private,,ranked,2639
,,FALSE,24,https://www.usnews.com/img/college-photo_22984.jpg,https://www.usnews.com/img/college-photo_22984_170x170mm.jpg,1070,50735,College Station,texasamuniversitycollegestation,77843,,66,57,41,26376,TX,69,,texas-am-college-station,National Universities,69,overall,228723,TRUE,TRUE,3.5,30208,3.9,Texas A&M University--College Station,national-universities,,Texas A & M University--College Station Texas A and M University--College Station Texas A&M University College Station,national-universities,69,public,,ranked,10366
,,FALSE,26,https://www.usnews.com/img/college-photo_25995.jpg,https://www.usnews.com/img/college-photo_25995_170x170mm.jpg,1180,34871,Minneapolis,universityofminnesotatwincities,55455,,44,57,23,28170,MN,69,,university-of-minnesota,National Universities,69,overall,174066,TRUE,TRUE,3.8,26603,3.6,University of Minnesota--Twin Cities,national-universities,,University of Minnesota Twin Cities,national-universities,69,public,,ranked,3969
,,FALSE,,https://www.usnews.com/img/college-photo_32777.jpg,https://www.usnews.com/img/college-photo_32777_170x170mm.jpg,1100,25791,Blacksburg,virginiatech,24061,,71,57,,,VA,69,3.9,virginia-tech,National Universities,69,overall,233921,TRUE,TRUE,3.2,29371,3.9,Virginia Tech,national-universities,,,national-universities,69,public,,ranked,3754
,,FALSE,26,https://www.usnews.com/img/college-photo_33114.jpg,https://www.usnews.com/img/college-photo_33114_170x170mm.jpg,1120,14348,Waco,bayloruniversity,76798,,40,56,53,36761,TX,75,,baylor-university,National Universities,75,overall,223232,TRUE,TRUE,3.1,43790,2.4,Baylor University,national-universities,,,national-universities,75,private,,ranked,6967
,,FALSE,29,https://www.usnews.com/img/college-photo_31014.jpg,https://www.usnews.com/img/college-photo_31014_170x170mm.jpg,1250,4612,Golden,coloradoschoolofmines,80401,,40,56,21,47042,CO,75,3.8,colorado-school-of-mines,National Universities,75,overall,126775,TRUE,TRUE,,37436,3.1,Colorado School of Mines,national-universities,,,national-universities,75,public,,ranked,1348
,,FALSE,25,https://www.usnews.com/img/college-photo_25790.jpg,https://www.usnews.com/img/college-photo_25790_170x170mm.jpg,1130,23373,Amherst,universityofmassachusettsamherst,1003,,60,56,35,35445,MA,75,3.8,umass-amherst,National Universities,75,overall,166629,TRUE,TRUE,3.2,33662,2.9,University of Massachusetts--Amherst,national-universities,,UMass Amherst University of Massachusetts Amherst,national-universities,75,public,,ranked,2221
,,FALSE,26,https://www.usnews.com/img/college-photo_1631.jpg,https://www.usnews.com/img/college-photo_1631_170x170mm.jpg,1130,16981,Oxford,miamiuniversityoxford,45056,,65,55,10,42507,OH,78,3.8,miami-university,National Universities,78,overall,204024,TRUE,TRUE,3.2,32768,3.1,Miami University--Oxford,national-universities,,Miami University Oxford Miami University Oxford,national-universities,78,public,,ranked,7104
,,FALSE,25,https://www.usnews.com/img/college-photo_3211.jpg,https://www.usnews.com/img/college-photo_3211_170x170mm.jpg,1070,8891,Fort Worth,texaschristianuniversity,76129,,38,55,35,33953,TX,78,,tcu,National Universities,78,overall,228875,TRUE,TRUE,3,44760,2.9,Texas Christian University,national-universities,,TCU,national-universities,78,private,,ranked,3636
,,FALSE,23,https://www.usnews.com/img/college-photo_26755.jpg,https://www.usnews.com/img/college-photo_26755_170x170mm.jpg,1020,24476,Iowa City,universityofiowa,52242,,84,55,34,32794,IA,78,3.6,university-of-iowa,National Universities,78,overall,153658,TRUE,TRUE,3.5,28813,2.9,University of Iowa,national-universities,,,national-universities,78,public,,ranked,1892
,,FALSE,27,https://www.usnews.com/img/college-photo_20158.jpg,https://www.usnews.com/img/college-photo_20158_170x170mm.jpg,1110,2289,Worcester,clarkuniversity,1610,,55,54,62,27702,MA,81,3.7,clark-university-massachusetts,National Universities,81,overall,165334,TRUE,TRUE,2.5,44400,,Clark University,national-universities,,,national-universities,81,private,,ranked,2139
,,FALSE,25,https://www.usnews.com/img/college-photo_12279.jpg,https://www.usnews.com/img/college-photo_12279_170x170mm.jpg,1110,32929,Tallahassee,floridastateuniversity,32306,,58,54,27,34036,FL,81,,fsu,National Universities,81,overall,134097,TRUE,TRUE,3.2,21673,,Florida State University,national-universities,,FSU,national-universities,81,public,,ranked,1489
,,FALSE,24,https://www.usnews.com/img/college-photo_15870.jpg,https://www.usnews.com/img/college-photo_15870_170x170mm.jpg,990,39090,East Lansing,michiganstateuniversity,48824,,66,54,5,47279,MI,81,3.7,michigan-state,National Universities,81,overall,171100,TRUE,TRUE,3.6,39405,3.1,Michigan State University,national-universities,,MSU,national-universities,81,public,,ranked,2290
,,FALSE,27,https://www.usnews.com/img/college-photo_11019.jpg,https://www.usnews.com/img/college-photo_11019_170x170mm.jpg,1170,23847,Raleigh,northcarolinastateuniversityraleigh,27695,,46,54,41,25623,NC,81,3.7,north-carolina-state-raleigh,National Universities,81,overall,199193,TRUE,TRUE,2.9,27406,3.4,North Carolina State University--Raleigh,national-universities,,NC State North Carolina State University Raleigh,national-universities,81,public,,ranked,2972
,,FALSE,23,https://www.usnews.com/img/college-photo_4118.jpg,https://www.usnews.com/img/college-photo_4118_170x170mm.jpg,1060,16962,Santa Cruz,universityofcaliforniasantacruz,95064,,59,54,18,47616,CA,81,3.7,ucsc,National Universities,81,overall,110714,TRUE,TRUE,,42042,2.5,University of California--Santa Cruz,national-universities,,UC Santa Cruz University of California Santa Cruz,national-universities,81,public,,ranked,1321
,,FALSE,23,https://www.usnews.com/img/college-photo_4016.jpg,https://www.usnews.com/img/college-photo_4016_170x170mm.jpg,1090,18374,Newark,universityofdelaware,19716,,65,54,,,DE,81,3.7,university-of-delaware,National Universities,81,overall,130943,TRUE,TRUE,3,32250,3,University of Delaware,national-universities,,,national-universities,81,public,,ranked,1431
,,FALSE,28,https://www.usnews.com/img/college-photo_21388.jpg,https://www.usnews.com/img/college-photo_21388_170x170mm.jpg,1230,13632,Binghamton,binghamtonuniversitysuny,13902,,41,53,54,29356,NY,87,3.7,suny-binghamton,National Universities,87,overall,196079,TRUE,TRUE,2.7,24403,2.3,Binghamton University--SUNY,national-universities,,Binghamton University SUNY Binghamton Binghamton University SUNY,national-universities,87,public,,ranked,2836
,,FALSE,26,https://www.usnews.com/img/college-photo_7142.jpg,https://www.usnews.com/img/college-photo_7142_170x170mm.jpg,1110,5754,Denver,universityofdenver,80208,,53,53,40,31393,CO,87,3.7,university-denver,National Universities,87,overall,127060,TRUE,TRUE,2.9,48669,2,University of Denver,national-universities,,DU,national-universities,87,private,,ranked,1371
,,FALSE,26,https://www.usnews.com/img/college-photo_20596.jpg,https://www.usnews.com/img/college-photo_20596_170x170mm.jpg,1120,3406,Tulsa,universityoftulsa,74104,,37,53,15,49957,OK,87,3.9,university-of-tulsa,National Universities,87,overall,207971,TRUE,TRUE,2.5,39502,2.2,University of Tulsa,national-universities,,,national-universities,87,private,,ranked,3185
,,FALSE,24,https://www.usnews.com/img/college-photo_3065.jpg,https://www.usnews.com/img/college-photo_3065_170x170mm.jpg,1060,39184,Bloomington,indianauniversitybloomington,47405,,79,52,16,37563,IN,90,3.7,indiana-university,National Universities,90,overall,151351,TRUE,TRUE,4.1,34845,,Indiana University--Bloomington,national-universities,,IU Bloomington Indiana University Bloomington,national-universities,90,public,,ranked,1809
,,FALSE,24,https://www.usnews.com/img/college-photo_7947.jpg,https://www.usnews.com/img/college-photo_7947_170x170mm.jpg,1040,8238,Milwaukee,marquetteuniversity,53201,,74,52,55,32894,WI,90,,marquette-university,National Universities,90,overall,239105,TRUE,TRUE,2.9,39900,2.4,Marquette University,national-universities,,,national-universities,90,private,,ranked,3863
,,FALSE,25,https://www.usnews.com/img/college-photo_31810.jpg,https://www.usnews.com/img/college-photo_31810_170x170mm.jpg,1070,27846,Boulder,universityofcoloradoboulder,80309,,77,52,12,41125,CO,90,3.7,cu-boulder,National Universities,90,overall,126614,TRUE,TRUE,3.5,35079,3.5,University of Colorado--Boulder,national-universities,,CU Boulder University of Colorado Boulder,national-universities,90,public,,ranked,1370
,,FALSE,26,https://www.usnews.com/img/college-photo_8416.jpg,https://www.usnews.com/img/college-photo_8416_170x170mm.jpg,1100,5711,San Diego,universityofsandiego,92110,,51,52,48,36861,CA,90,3.9,university-of-san-diego,National Universities,90,overall,122436,TRUE,TRUE,2.8,47708,3.5,University of San Diego,national-universities,,,national-universities,90,private,,ranked,10395
,,FALSE,25,https://www.usnews.com/img/college-photo_12760.jpg,https://www.usnews.com/img/college-photo_12760_170x170mm.jpg,1080,13251,Philadelphia,drexeluniversity,19104,,75,51,54,42176,PA,94,3.7,drexel-university,National Universities,94,overall,212054,TRUE,TRUE,2.8,52002,3,Drexel University,national-universities,,,national-universities,94,private,,ranked,3256
,,FALSE,24,https://www.usnews.com/img/college-photo_25643.jpg,https://www.usnews.com/img/college-photo_25643_170x170mm.jpg,1120,7454,St. Louis,saintlouisuniversity,63103,,65,51,51,28328,MO,94,3.9,st-louis-university,National Universities,94,overall,179159,TRUE,TRUE,2.9,42166,2.2,Saint Louis University,national-universities,,St Louis University Saint Louis University,national-universities,94,private,,ranked,2506
,,FALSE,23,https://www.usnews.com/img/college-photo_12207.jpg,https://www.usnews.com/img/college-photo_12207_170x170mm.jpg,1090,2714,New York,yeshivauniversity,10033,,51,51,46,34756,NY,94,3.5,yeshiva-university,National Universities,94,overall,197708,TRUE,TRUE,2.3,42000,,Yeshiva University,national-universities,,,national-universities,94,private,,ranked,2903
,,FALSE,26,https://www.usnews.com/img/college-photo_3141.jpg,https://www.usnews.com/img/college-photo_3141_170x170mm.jpg,1140,12410,Rochester,rochesterinstituteoftechnology,14623,,55,50,70,31793,NY,97,,rit,National Universities,97,overall,195003,TRUE,TRUE,3.1,40068,2.9,Rochester Institute of Technology,national-universities,,RIT,national-universities,97,private,,ranked,2806
,,FALSE,26,https://www.usnews.com/img/college-photo_30011.jpg,https://www.usnews.com/img/college-photo_30011_170x170mm.jpg,1150,17026,Stony Brook,stonybrookuniversitysuny,11794,,41,50,13,34024,NY,97,3.8,stony-brook-suny,National Universities,97,overall,196097,TRUE,TRUE,,26297,2.8,Stony Brook University--SUNY,national-universities,,Stony Brook SUNY Stony Brook Stony Brook University SUNY,national-universities,97,public,,ranked,2838
,,FALSE,23,https://www.usnews.com/img/college-photo_29342.jpg,https://www.usnews.com/img/college-photo_29342_170x170mm.jpg,1070,1755,Syracuse,sunycollegeofenvironmentalscienceandforestry,13210,,54,50,,,NY,97,3.7,suny-environmental-science-and-forestry,National Universities,97,overall,196103,TRUE,TRUE,,18090,2,SUNY College of Environmental Science and Forestry,national-universities,,SUNY ESF,national-universities,97,public,,ranked,2851
,,FALSE,24,https://www.usnews.com/img/college-photo_32779.jpg,https://www.usnews.com/img/college-photo_32779_170x170mm.jpg,1070,20411,Buffalo,universityatbuffalosuny,14214,,59,50,28,37040,NY,97,3.6,ub,National Universities,97,overall,196088,TRUE,TRUE,3,26270,2.8,University at Buffalo--SUNY,national-universities,,SUNY Buffalo University at Buffalo SUNY,national-universities,97,public,,ranked,9554
,,FALSE,23,https://www.usnews.com/img/college-photo_13004.jpg,https://www.usnews.com/img/college-photo_13004_170x170mm.jpg,1060,22436,Norman,universityofoklahoma,73019,,71,50,13,35144,OK,97,3.6,university-of-oklahoma,National Universities,97,overall,207500,TRUE,TRUE,3.1,24443,2.6,University of Oklahoma,national-universities,,,national-universities,97,public,,ranked,3184
,,FALSE,25,https://www.usnews.com/img/college-photo_943.jpg,https://www.usnews.com/img/college-photo_943_170x170mm.jpg,1100,11159,Burlington,universityofvermont,5405,,69,50,48,36399,VT,97,3.6,university-of-vermont,National Universities,97,overall,231174,TRUE,TRUE,2.6,41356,2.3,University of Vermont,national-universities,,UVM,national-universities,97,public,,ranked,3696
,,FALSE,24,https://www.usnews.com/img/college-photo_11860.jpg,https://www.usnews.com/img/college-photo_11860_170x170mm.jpg,1060,22658,Auburn,auburnuniversity,36849,,81,49,16,39912,AL,103,3.9,auburn-university,National Universities,103,overall,100858,TRUE,TRUE,3.1,29640,3,Auburn University,national-universities,,AU,national-universities,103,public,,ranked,1009
,,FALSE,26,https://www.usnews.com/img/college-photo_20087.jpg,https://www.usnews.com/img/college-photo_20087_170x170mm.jpg,1130,2944,Chicago,illinoisinstituteoftechnology,60616,,57,49,62,29116,IL,103,4,iit,National Universities,103,overall,145725,TRUE,TRUE,2.3,45864,2.8,Illinois Institute of Technology,national-universities,,Illinois Tech IIT,national-universities,103,private,,ranked,1691
,,FALSE,24,https://www.usnews.com/img/college-photo_29455.jpg,https://www.usnews.com/img/college-photo_29455_170x170mm.jpg,1030,11129,Chicago,loyolauniversitychicago,60660,,73,49,64,38093,IL,103,3.7,loyola-chicago,National Universities,103,overall,146719,TRUE,TRUE,3,42828,,Loyola University Chicago,national-universities,,,national-universities,103,private,,ranked,1710
,,FALSE,22,https://www.usnews.com/dims4/USNEWS/24e3183/17177859217/resize/800x540/quality/85/?url=www.usnews.com%2Fcmsmedia%2Fc3%2F28%2F2bd2b5db45879981364aa748b2f4%2F160727-university-of-new-hampshire-hero-stock.jpg,https://www.usnews.com/dims4/USNEWS/4d9b324/17177859217/resize/170x170/quality/85/?url=www.usnews.com%2Fcmsmedia%2Fc3%2F28%2F2bd2b5db45879981364aa748b2f4%2F160727-university-of-new-hampshire-hero-stock.jpg,990,12871,Durham,universityofnewhampshire,3824,,76,49,56,34826,NH,103,3.5,university-of-new-hampshire,National Universities,103,overall,183044,TRUE,TRUE,2.6,32637,2.3,University of New Hampshire,national-universities,,UNH,national-universities,103,public,,ranked,2589
,,FALSE,22,https://www.usnews.com/dims4/USNEWS/54b5df6/17177859217/resize/800x540/quality/85/?url=www.usnews.com%2Fcmsmedia%2F19%2Fba%2F44c3c0f940f1833dc887f8f5f20b%2F160727-university-of-oregon-hero-stock.jpg,https://www.usnews.com/dims4/USNEWS/b7a014c/17177859217/resize/170x170/quality/85/?url=www.usnews.com%2Fcmsmedia%2F19%2Fba%2F44c3c0f940f1833dc887f8f5f20b%2F160727-university-of-oregon-hero-stock.jpg,980,20049,Eugene,universityoforegon,97403,,78,49,7,42682,OR,103,3.6,university-of-oregon,National Universities,103,overall,209551,TRUE,TRUE,3.1,34611,,University of Oregon,national-universities,,,national-universities,103,public,,ranked,3223
,,FALSE,25,https://www.usnews.com/img/college-photo_19707.jpg,https://www.usnews.com/img/college-photo_19707_170x170mm.jpg,1120,25556,Columbia,universityofsouthcarolina,29208,,68,49,8,41810,SC,103,,university-of-south-carolina,National Universities,103,overall,218663,TRUE,TRUE,3.2,32362,2.4,University of South Carolina,national-universities,,USC,national-universities,103,public,,ranked,3448
,,FALSE,24,https://www.usnews.com/img/college-photo_33614.jpg,https://www.usnews.com/img/college-photo_33614_170x170mm.jpg,1040,22139,Knoxville,universityoftennessee,37996,,77,49,33,39170,TN,103,3.9,university-of-tennessee,National Universities,103,overall,221759,TRUE,TRUE,3.2,31160,2.9,University of Tennessee,national-universities,,,national-universities,103,public,,ranked,3530
,,FALSE,22,,,1040,5899,Washington,howarduniversity,20059,,30,48,50,33124,DC,110,3.5,howard-university,National Universities,110,overall,131520,TRUE,TRUE,2.7,25697,2.2,Howard University,national-universities,,HU,national-universities,110,private,,ranked,1448
,,FALSE,23,https://www.usnews.com/img/college-photo_31168.jpg,https://www.usnews.com/img/college-photo_31168_170x170mm.jpg,980,32563,Tuscaloosa,universityofalabama,35487,,53,48,27,26861,AL,110,3.7,university-of-alabama,National Universities,110,overall,100751,TRUE,TRUE,3.2,28100,2.5,University of Alabama,national-universities,,,national-universities,110,public,,ranked,1051
,,FALSE,23,https://www.usnews.com/img/college-photo_1190.jpg,https://www.usnews.com/img/college-photo_1190_170x170mm.jpg,1030,6745,San Francisco,universityofsanfrancisco,94117,,71,48,46,42433,CA,110,3.4,university-san-francisco,National Universities,110,overall,122612,TRUE,TRUE,2.8,46250,,University of San Francisco,national-universities,,USF,national-universities,110,private,,ranked,1325
,,FALSE,23,https://www.usnews.com/img/college-photo_3876.jpg,https://www.usnews.com/img/college-photo_3876_170x170mm.jpg,1030,3483,Stockton,universityofthepacific,95211,,66,48,67,37188,CA,110,3.5,university-of-the-pacific,National Universities,110,overall,120883,TRUE,TRUE,2.2,46346,2.9,University of the Pacific,national-universities,,,national-universities,110,private,,ranked,1329
,,FALSE,21,https://www.usnews.com/img/college-photo_20743.jpg,https://www.usnews.com/img/college-photo_20743_170x170mm.jpg,1050,23789,Salt Lake City,universityofutah,84112,,76,48,11,35873,UT,110,3.6,university-of-utah,National Universities,110,overall,230764,TRUE,TRUE,3.2,26408,2.9,University of Utah,national-universities,,,national-universities,110,public,,ranked,3675
,,FALSE,22,https://www.usnews.com/dims4/USNEWS/fc8052b/17177859217/resize/800x540/quality/85/?url=www.usnews.com%2Fcmsmedia%2F71%2Fed%2F6ab2635c41809a5cb31a43aea767%2F160727-arizona-state-university-hero-stock.jpg,https://www.usnews.com/dims4/USNEWS/398e22d/17177859217/resize/170x170/quality/85/?url=www.usnews.com%2Fcmsmedia%2F71%2Fed%2F6ab2635c41809a5cb31a43aea767%2F160727-arizona-state-university-hero-stock.jpg,1020,42477,Tempe,arizonastateuniversitytempe,85287,,83,47,31,37446,AZ,115,3.5,asu,National Universities,115,overall,104151,TRUE,TRUE,3.6,27372,3.3,Arizona State University--Tempe,national-universities,,ASU,national-universities,115,public,,ranked,1081
,,FALSE,22,https://www.usnews.com/img/college-photo_245.jpg,https://www.usnews.com/img/college-photo_245_170x170mm.jpg,980,30671,Ames,iowastateuniversity,50011,,87,47,34,27241,IA,115,3.6,iowa-state-university,National Universities,115,overall,153603,TRUE,TRUE,3,22256,3.3,Iowa State University,national-universities,,,national-universities,115,public,,ranked,1869
,,FALSE,24,https://www.usnews.com/img/college-photo_21951.jpg,https://www.usnews.com/img/college-photo_21951_170x170mm.jpg,1050,29275,Philadelphia,templeuniversity,19122,,52,47,37,35109,PA,115,3.6,temple-university,National Universities,115,overall,216339,TRUE,TRUE,3.2,27266,2.2,Temple University,national-universities,,,national-universities,115,public,,ranked,3371
,,FALSE,23,https://www.usnews.com/dims4/USNEWS/3c89a9f/17177859217/resize/800x540/quality/85/?url=www.usnews.com%2Fcmsmedia%2F81%2F43%2F5875e9864a6595de296eecc587fd%2F160727-university-of-kansas-hero-stock.jpg,https://www.usnews.com/dims4/USNEWS/b5878c1/17177859217/resize/170x170/quality/85/?url=www.usnews.com%2Fcmsmedia%2F81%2F43%2F5875e9864a6595de296eecc587fd%2F160727-university-of-kansas-hero-stock.jpg,,19262,Lawrence,universityofkansas,66045,,93,47,30,30962,KS,115,3.6,ku,National Universities,115,overall,155317,TRUE,TRUE,3.2,26592,2.7,University of Kansas,national-universities,,KU,national-universities,115,public,,ranked,1948
,,FALSE,24,https://www.usnews.com/img/college-photo_30283.jpg,https://www.usnews.com/img/college-photo_30283_170x170mm.jpg,1050,6111,St. Paul,universityofstthomas,55105,,83,47,55,34299,MN,115,3.6,university-of-st-thomas-minnesota,National Universities,115,overall,174914,TRUE,TRUE,2.7,41133,3.1,University of St. Thomas,national-universities,,University of St Thomas University of Saint Thomas,national-universities,115,private,,ranked,2345
,,FALSE,23,https://www.usnews.com/img/college-photo_1833.jpg,https://www.usnews.com/img/college-photo_1833_170x170mm.jpg,1040,3241,Washington,catholicuniversityofamerica,20064,,80,46,54,35518,DC,120,3.4,catholic-university,National Universities,120,overall,131283,TRUE,TRUE,,44060,2,The Catholic University of America,national-universities,,CUA,national-universities,120,private,,ranked,1437
,,FALSE,22,https://www.usnews.com/img/college-photo_14885.jpg,https://www.usnews.com/img/college-photo_14885_170x170mm.jpg,1030,15407,Chicago,depauluniversity,60604,,70,46,59,42438,IL,120,3.6,depaul-university,National Universities,120,overall,144740,TRUE,TRUE,3,39010,,DePaul University,national-universities,,,national-universities,120,private,,ranked,1671
,,FALSE,24,https://www.usnews.com/img/college-photo_18781.jpg,https://www.usnews.com/img/college-photo_18781_170x170mm.jpg,1055,6039,Pittsburgh,duquesneuniversity,15282,,74,46,65,29185,PA,120,3.7,duquesne-university,National Universities,120,overall,212106,TRUE,TRUE,2.6,36394,,Duquesne University,national-universities,,,national-universities,120,private,,ranked,3258
,,FALSE,23,https://www.usnews.com/img/college-photo_7385.jpg,https://www.usnews.com/img/college-photo_7385_170x170mm.jpg,1020,25898,Columbia,universityofmissouri,65211,,75,46,33,27962,MO,120,,university-of-missouri,National Universities,120,overall,178396,TRUE,TRUE,3,26506,2.5,University of Missouri,national-universities,,Mizzou,national-universities,120,public,,ranked,2516
,,FALSE,24,https://www.usnews.com/img/college-photo_23146.jpg,https://www.usnews.com/img/college-photo_23146_170x170mm.jpg,1080,3268,Potsdam,clarksonuniversity,13699,,68,45,79,33669,NY,124,3.6,clarkson-university,National Universities,124,overall,190044,TRUE,TRUE,2.5,47950,2.6,Clarkson University,national-universities,,,national-universities,124,private,,ranked,2699
,,FALSE,22,https://www.usnews.com/img/college-photo_4387.jpg,https://www.usnews.com/img/college-photo_4387_170x170mm.jpg,1020,25177,Fort Collins,coloradostateuniversity,80523,,78,45,16,39497,CO,124,3.6,colorado-state-university,National Universities,124,overall,126818,TRUE,TRUE,2.9,29140,2.8,Colorado State University,national-universities,,,national-universities,124,public,,ranked,1350
,,FALSE,25,https://www.usnews.com/img/college-photo_28099.jpg,https://www.usnews.com/img/college-photo_28099_170x170mm.jpg,1073,5829,Houghton,michigantechnologicaluniversity,49931,,76,45,28,38217,MI,124,3.7,michigan-tech,National Universities,124,overall,171128,TRUE,TRUE,2.1,32318,2.8,Michigan Technological University,national-universities,,,national-universities,124,public,,ranked,2292
,,FALSE,23,https://www.usnews.com/img/college-photo_20882.jpg,https://www.usnews.com/img/college-photo_20882_170x170mm.jpg,1070,5956,South Orange,setonhalluniversity,7079,,67,45,,,NJ,124,3.6,seton-hall-university-new-jersey,National Universities,124,overall,186584,TRUE,TRUE,2.8,40588,,Seton Hall University,national-universities,,,national-universities,124,private,,ranked,2632
,,FALSE,21,https://www.usnews.com/img/college-photo_26541.jpg,https://www.usnews.com/img/college-photo_26541_170x170mm.jpg,970,34072,Tucson,universityofarizona,85721,,79,45,29,35051,AZ,124,3.5,university-of-arizona,National Universities,124,overall,104179,TRUE,TRUE,3.7,32449,3.1,University of Arizona,national-universities,,,national-universities,124,public,,ranked,1083
,,FALSE,21,https://www.usnews.com/img/college-photo_1538.jpg,https://www.usnews.com/img/college-photo_1538_170x170mm.jpg,940,19799,Riverside,universityofcaliforniariverside,92521,,66,45,15,41753,CA,124,3.7,ucr,National Universities,124,overall,110671,TRUE,TRUE,3,41931,2.6,University of California--Riverside,national-universities,,UC Riverside University of California Riverside,national-universities,124,public,,ranked,1316
,,FALSE,24,https://www.usnews.com/img/college-photo_4235.jpg,https://www.usnews.com/img/college-photo_4235_170x170mm.jpg,1030,8330,Dayton,universityofdayton,45469,,60,45,46,34204,OH,124,3.7,university-of-dayton,National Universities,124,overall,202480,TRUE,TRUE,2.5,41750,2.2,University of Dayton,national-universities,,,national-universities,124,private,,ranked,3127
,,FALSE,22,https://www.usnews.com/img/college-photo_32898.jpg,https://www.usnews.com/img/college-photo_32898_170x170mm.jpg,990,20833,Lincoln,universityofnebraskalincoln,68588,,75,45,21,28968,NE,124,3.5,university-of-nebraska,National Universities,124,overall,181464,TRUE,TRUE,3.2,23256,2.6,University of Nebraska--Lincoln,national-universities,,University of Nebraska Lincoln,national-universities,124,public,,ranked,2565
,,FALSE,24,https://www.usnews.com/img/college-photo_32913.jpg,https://www.usnews.com/img/college-photo_32913_170x170mm.jpg,1070,6899,Hempstead,hofstrauniversity,11549,,62,44,61,40205,NY,132,3.6,hofstra-university,National Universities,132,overall,191649,FALSE,TRUE,2.7,43960,3,Hofstra University,national-universities,,,national-universities,132,private,,ranked,2732
,,FALSE,23,https://www.usnews.com/img/college-photo_33084.jpg,https://www.usnews.com/img/college-photo_33084_170x170mm.jpg,1010,26118,Baton Rouge,louisianastateuniversitybatonrouge,70803,,76,43,14,40711,LA,133,3.4,lsu-baton-rouge,National Universities,133,overall,159391,TRUE,TRUE,2.8,28051,2.5,Louisiana State University--Baton Rouge,national-universities,,LSU Baton Rouge Louisiana State University Baton Rouge Louisiana State University Baton Rouge,national-universities,133,public,,ranked,2010
,,FALSE,25,https://www.usnews.com/img/college-photo_30670.jpg,https://www.usnews.com/img/college-photo_30670_170x170mm.jpg,1100,4706,Macon,merceruniversity,31207,,69,43,67,26615,GA,133,3.8,mercer-university,National Universities,133,overall,140447,TRUE,TRUE,2.2,36000,3,Mercer University,national-universities,,,national-universities,133,private,,ranked,1580
,,FALSE,23,https://www.usnews.com/img/college-photo_16501.jpg,https://www.usnews.com/img/college-photo_16501_170x170mm.jpg,1030,7014,New York,newschool,10011,,60,43,41,50853,NY,133,3.3,new-school,National Universities,133,overall,193654,TRUE,TRUE,,47330,,The New School,national-universities,,,national-universities,133,private,,ranked,20662
,,FALSE,,https://www.usnews.com/img/college-photo_1687.jpg,https://www.usnews.com/img/college-photo_1687_170x170mm.jpg,910,8170,Newark,rutgersuniversitynewark,7102,,65,43,26,38949,NJ,133,,rutgers-newark,National Universities,133,overall,186399,TRUE,TRUE,2.9,29480,,Rutgers University--Newark,national-universities,,"Rutgers University Rutgers, the State University of New Jersey Newark",national-universities,133,public,,ranked,2631
,,FALSE,23,https://www.usnews.com/img/college-photo_22755.jpg,https://www.usnews.com/img/college-photo_22755_170x170mm.jpg,1010,22548,Fayetteville,universityofarkansas,72701,,63,43,16,33514,AR,133,3.7,university-of-arkansas,National Universities,133,overall,106397,TRUE,TRUE,3.2,24308,2.5,University of Arkansas,national-universities,,,national-universities,133,public,,ranked,1108
,,FALSE,23,https://www.usnews.com/img/college-photo_32541.jpg,https://www.usnews.com/img/college-photo_32541_170x170mm.jpg,1030,25860,Cincinnati,universityofcincinnati,45221,,76,43,28,35124,OH,133,3.6,university-of-cincinnati,National Universities,133,overall,201885,TRUE,TRUE,2.9,26334,2.6,University of Cincinnati,national-universities,,,national-universities,133,public,,ranked,3125
,,FALSE,22,https://www.usnews.com/img/college-photo_21807.jpg,https://www.usnews.com/img/college-photo_21807_170x170mm.jpg,980,22621,Lexington,universityofkentucky,40506,,91,43,,,KY,133,3.7,university-of-kentucky,National Universities,133,overall,157085,TRUE,TRUE,3,28046,2.5,University of Kentucky,national-universities,,,national-universities,133,public,,ranked,1989
,,FALSE,24,https://www.usnews.com/img/college-photo_21983.jpg,https://www.usnews.com/img/college-photo_21983_170x170mm.jpg,1060,23812,Fairfax,georgemasonuniversity,22030,,81,42,39,38588,VA,140,3.7,gmu,National Universities,140,overall,232186,TRUE,TRUE,3,34370,2.4,George Mason University,national-universities,,GMU,national-universities,140,public,,ranked,3749
,,FALSE,23,https://www.usnews.com/img/college-photo_33255.jpg,https://www.usnews.com/img/college-photo_33255_170x170mm.jpg,1110,8211,Newark,newjerseyinstituteoftechnology,7102,,59,42,35,18674,NJ,140,3.5,njit,National Universities,140,overall,185828,TRUE,TRUE,2.4,31034,2.6,New Jersey Institute of Technology,national-universities,,NJIT,national-universities,140,public,,ranked,2621
,,FALSE,23,https://www.usnews.com/img/college-photo_15698.jpg,https://www.usnews.com/img/college-photo_15698_170x170mm.jpg,1000,29853,San Diego,sandiegostateuniversity,92182,,35,42,32,31354,CA,140,3.7,sdsu,National Universities,140,overall,122409,TRUE,TRUE,2.9,19340,2.5,San Diego State University,national-universities,,SDSU,national-universities,140,public,,ranked,1151
,,FALSE,24,https://www.usnews.com/img/college-photo_14496.jpg,https://www.usnews.com/img/college-photo_14496_170x170mm.jpg,1070,31461,Tampa,universityofsouthflorida,33620,,47,42,25,23103,FL,140,3.9,usf,National Universities,140,overall,137351,TRUE,TRUE,2.5,17324,2.4,University of South Florida,national-universities,,,national-universities,140,public,,ranked,1537
,,FALSE,20,https://www.usnews.com/img/college-photo_8117.jpg,https://www.usnews.com/img/college-photo_8117_170x170mm.jpg,930,24904,Pullman,washingtonstateuniversity,99164,,72,42,37,30666,WA,140,3.4,washington-state,National Universities,140,overall,236939,TRUE,TRUE,2.8,25817,2.8,Washington State University,national-universities,,,national-universities,140,public,,ranked,3800
,,FALSE,22,https://www.usnews.com/img/college-photo_14242.jpg,https://www.usnews.com/img/college-photo_14242_170x170mm.jpg,950,19472,Manhattan,kansasstateuniversity,66506,,94,41,22,34621,KS,145,3.5,ksu,National Universities,145,overall,155399,TRUE,TRUE,2.8,24775,2.7,Kansas State University,national-universities,,,national-universities,145,public,,ranked,1928
,,FALSE,22,https://www.usnews.com/img/college-photo_20198.jpg,https://www.usnews.com/img/college-photo_20198_170x170mm.jpg,990,25327,Corvallis,oregonstateuniversity,97331,,77,41,34,36636,OR,145,3.7,oregon-state,National Universities,145,overall,209542,TRUE,TRUE,2.7,29457,2.8,Oregon State University,national-universities,,,national-universities,145,public,,ranked,3210
,,FALSE,22,https://www.usnews.com/img/college-photo_2071.jpg,https://www.usnews.com/img/college-photo_2071_170x170mm.jpg,970,2786,Rochester,stjohnfishercollege,14618,,65,41,81,28750,NY,145,3.6,st-john-fisher-college,National Universities,145,overall,195720,TRUE,TRUE,2.1,33120,,St. John Fisher College,national-universities,,St John Fisher College Saint John Fisher College,national-universities,145,private,,ranked,2821
,,FALSE,21,,,990,17959,Chicago,universityofillinoischicago,60607,,74,41,31,39033,IL,145,3.3,uic,National Universities,145,overall,145600,TRUE,TRUE,3,27672,2.8,University of Illinois--Chicago,national-universities,,UIC University of Illinois Chicago,national-universities,145,public,,ranked,1776
,,FALSE,22,https://www.usnews.com/img/college-photo_19940.jpg,https://www.usnews.com/img/college-photo_19940_170x170mm.jpg,1000,19213,University,universityofmississippi,38677,,78,41,24,27943,MS,145,3.6,university-of-mississippi,National Universities,145,overall,176017,TRUE,TRUE,2.8,23554,2.1,University of Mississippi,national-universities,,Ole Miss,national-universities,145,public,,ranked,2440
,,FALSE,25,https://www.usnews.com/img/college-photo_2300.jpg,https://www.usnews.com/img/college-photo_2300_170x170mm.jpg,1140,17350,Richardson,universityoftexasdallas,75080,,68,41,28,37028,TX,145,,university-of-texas-dallas,National Universities,145,overall,228787,TRUE,TRUE,3.1,33654,2.6,University of Texas--Dallas,national-universities,,University of Texas Dallas,national-universities,145,public,,ranked,9741
,,FALSE,22,https://www.usnews.com/img/college-photo_8683.jpg,https://www.usnews.com/img/college-photo_8683_170x170mm.jpg,1010,5205,Garden City,adelphiuniversity,11530,,70,40,,,NY,151,3.6,adelphi-university,National Universities,151,overall,188429,TRUE,TRUE,2.1,37170,,Adelphi University,national-universities,,,national-universities,151,private,,ranked,2666
,,FALSE,24,https://www.usnews.com/img/college-photo_14465.jpg,https://www.usnews.com/img/college-photo_14465_170x170mm.jpg,1060,3629,Melbourne,floridainstituteoftechnology,32901,,61,40,,,FL,151,3.6,florida-tech,National Universities,151,overall,133881,TRUE,TRUE,,41240,2.1,Florida Institute of Technology,national-universities,,Florida Tech,national-universities,151,private,,ranked,1469
,,FALSE,21,https://www.usnews.com/img/college-photo_30981.jpg,https://www.usnews.com/img/college-photo_30981_170x170mm.jpg,990,23788,Athens,ohiouniversity,45701,,75,40,,,OH,151,3.5,ohio-university,National Universities,151,overall,204857,TRUE,TRUE,2.7,21360,2.3,Ohio University,national-universities,,OU,national-universities,151,public,,ranked,3100
,,FALSE,21,https://www.usnews.com/img/college-photo_32487.jpg,https://www.usnews.com/img/college-photo_32487_170x170mm.jpg,990,3095,Seattle,seattlepacificuniversity,98119,,87,40,,,WA,151,3.5,seattle-pacific-university,National Universities,151,overall,236577,TRUE,TRUE,2.1,40893,2.9,Seattle Pacific University,national-universities,,,national-universities,151,private,,ranked,3788
,,FALSE,22,https://www.usnews.com/img/college-photo_23213.jpg,https://www.usnews.com/img/college-photo_23213_170x170mm.jpg,1010,13139,Albany,universityatalbanysuny,12222,,54,40,,,NY,151,3.2,suny-albany,National Universities,151,overall,196060,TRUE,TRUE,2.8,24358,,University at Albany--SUNY,national-universities,,SUNY Albany University at Albany SUNY,national-universities,151,public,,ranked,2835
,,FALSE,21,https://www.usnews.com/img/college-photo_3665.jpg,https://www.usnews.com/img/college-photo_3665_170x170mm.jpg,970,21093,Stillwater,oklahomastateuniversity,74078,,75,39,,,OK,156,3.5,oklahoma-state,National Universities,156,overall,207388,TRUE,TRUE,2.9,23776,2.6,Oklahoma State University,national-universities,,OSU,national-universities,156,public,,ranked,3170
,,FALSE,24,https://www.usnews.com/img/college-photo_17926.jpg,https://www.usnews.com/img/college-photo_17926_170x170mm.jpg,1070,13639,Lowell,universityofmassachusettslowell,1854,,60,39,,,MA,156,3.6,umass-lowell,National Universities,156,overall,166513,TRUE,TRUE,2.4,31865,2.3,University of Massachusetts--Lowell,national-universities,,UMass University of Massachusetts Lowell,national-universities,156,public,,ranked,2161
,,FALSE,22,,,990,14801,Kingston,universityofrhodeisland,2881,,71,39,,,RI,156,3.5,university-of-rhode-island,National Universities,156,overall,217484,TRUE,TRUE,2.6,28874,2.4,University of Rhode Island,national-universities,,URI,national-universities,156,public,,ranked,3414
,,FALSE,21,https://www.usnews.com/img/college-photo_7165.jpg,https://www.usnews.com/img/college-photo_7165_170x170mm.jpg,950,4091,La Mirada,biolauniversity,90639,,65,38,,,CA,159,3.5,biola-university,National Universities,159,overall,110097,TRUE,TRUE,,38448,,Biola University,national-universities,,,national-universities,159,private,,ranked,1122
,,FALSE,21,https://www.usnews.com/img/college-photo_16342.jpg,https://www.usnews.com/img/college-photo_16342_170x170mm.jpg,,18643,Normal,illinoisstateuniversity,61790,,89,38,,,IL,159,3.4,illinois-state-university,National Universities,159,overall,145813,TRUE,TRUE,2.4,25168,,Illinois State University,national-universities,,,national-universities,159,public,,ranked,1692
,,FALSE,21,https://www.usnews.com/img/college-photo_11631.jpg,https://www.usnews.com/img/college-photo_11631_170x170mm.jpg,965,12369,Birmingham,universityofalabamabirmingham,35294,,89,38,,,AL,159,3.7,uab,National Universities,159,overall,100663,TRUE,TRUE,2.8,23790,2.2,University of Alabama--Birmingham,national-universities,,UAB University of Alabama Birmingham,national-universities,159,public,,ranked,1052
,,FALSE,21,https://www.usnews.com/img/college-photo_16415.jpg,https://www.usnews.com/img/college-photo_16415_170x170mm.jpg,970,13132,Honolulu,universityofhawaiimanoa,96822,,80,38,,,HI,159,3.5,university-of-hawaii,National Universities,159,overall,141574,TRUE,TRUE,2.8,33764,2.2,University of Hawaii--Manoa,national-universities,,UH Manoa University of Hawaii Manoa,national-universities,159,public,,ranked,1610
,,FALSE,20,https://www.usnews.com/img/college-photo_18188.jpg,https://www.usnews.com/img/college-photo_18188_170x170mm.jpg,930,2809,La Verne,universityoflaverne,91750,,48,38,,,CA,159,3.5,la-verne,National Universities,159,overall,117140,TRUE,TRUE,,41450,,University of La Verne,national-universities,,,national-universities,159,private,,ranked,1216
,,FALSE,24,https://www.usnews.com/img/college-photo_28584.jpg,https://www.usnews.com/img/college-photo_28584_170x170mm.jpg,1120,11142,Baltimore,universityofmarylandbaltimorecounty,21250,,57,38,,,MD,159,,umbc,National Universities,159,overall,163268,TRUE,TRUE,,25654,2.4,University of Maryland--Baltimore County,national-universities,,UMBC University of Maryland Baltimore County,national-universities,159,public,,ranked,2105
,,FALSE,18,,,860,1555,Immaculata,immaculatauniversity,19345,,82,37,,,PA,165,3.3,immaculata-university,National Universities,165,overall,213011,TRUE,TRUE,,27350,,Immaculata University,national-universities,,,national-universities,165,private,,ranked,3276
,,FALSE,22,https://www.usnews.com/img/college-photo_3884.jpg,https://www.usnews.com/img/college-photo_3884_170x170mm.jpg,900,2967,St Louis,maryvilleuniversityofstlouis,63141,,93,37,,,MO,165,3.6,maryville-saint-louis,National Universities,165,overall,178059,TRUE,TRUE,,28470,,Maryville University of St. Louis,national-universities,,Maryville University of St Louis Maryville University of Saint Louis,national-universities,165,private,,ranked,2482
,,FALSE,25,https://www.usnews.com/img/college-photo_31627.jpg,https://www.usnews.com/img/college-photo_31627_170x170mm.jpg,1186,6909,Rolla,missouriuniversityofsciencetechnology,65409,,79,37,,,MO,165,3.6,missouri-university-science,National Universities,165,overall,178411,TRUE,TRUE,2.1,27701,2.9,Missouri University of Science & Technology,national-universities,,Missouri University of Science and Technology,national-universities,165,public,,ranked,2517
,,FALSE,22,https://www.usnews.com/img/college-photo_7773.jpg,https://www.usnews.com/img/college-photo_7773_170x170mm.jpg,970,16440,Queens,stjohnsuniversity,11439,,63,37,,,NY,165,3.5,st-johns-university-new-york,National Universities,165,overall,195809,TRUE,TRUE,2.5,40790,,St. John's University,national-universities,,St John's University Saint John's University St Johns University Saint Johns University St. Johns University,national-universities,165,private,,ranked,2823
,,FALSE,18,https://www.usnews.com/img/college-photo_29536.jpg,https://www.usnews.com/img/college-photo_29536_170x170mm.jpg,860,6815,Merced,universityofcaliforniamerced,95343,,74,37,,,CA,165,3.5,university-of-california-merced,National Universities,165,overall,445188,TRUE,TRUE,,41612,2.1,University of California--Merced,national-universities,,,national-universities,165,public,,ranked,4127
,,FALSE,22,,,1000,15827,Louisville,universityoflouisville,40292,,73,37,,,KY,165,3.5,university-of-louisville,National Universities,165,overall,157289,TRUE,TRUE,2.8,26286,2.3,University of Louisville,national-universities,,,national-universities,165,public,,ranked,1999
,,FALSE,21,https://www.usnews.com/img/college-photo_8609.jpg,https://www.usnews.com/img/college-photo_8609_170x170mm.jpg,990,18090,Mississippi State,mississippistateuniversity,39762,,71,36,,,MS,171,3.4,mississippi-state,National Universities,171,overall,176080,TRUE,TRUE,2.6,22358,2.4,Mississippi State University,national-universities,,,national-universities,171,public,,ranked,2423
,,FALSE,,https://www.usnews.com/img/college-photo_14030.jpg,https://www.usnews.com/img/college-photo_14030_170x170mm.jpg,990,14344,Glassboro,rowanuniversity,8028,,58,36,,,NJ,171,3.5,rowan-university,National Universities,171,overall,184782,TRUE,TRUE,2.2,21378,3.3,Rowan University,national-universities,,,national-universities,171,public,,ranked,2609
,,FALSE,24,https://www.usnews.com/img/college-photo_6676.jpg,https://www.usnews.com/img/college-photo_6676_170x170mm.jpg,1080,55776,Orlando,universityofcentralflorida,32816,,50,36,,,FL,171,3.9,ucf,National Universities,171,overall,132903,TRUE,TRUE,2.7,22467,2.6,University of Central Florida,national-universities,,UCF,national-universities,171,public,,ranked,3954
,,FALSE,21,https://www.usnews.com/img/college-photo_17379.jpg,https://www.usnews.com/img/college-photo_17379_170x170mm.jpg,930,9586,Moscow,universityofidaho,83844,,76,36,,,ID,171,3.4,university-of-idaho,National Universities,171,overall,142285,TRUE,TRUE,2.6,23812,2.2,University of Idaho,national-universities,,,national-universities,171,public,,ranked,1626
,,FALSE,21,https://www.usnews.com/img/college-photo_30255.jpg,https://www.usnews.com/img/college-photo_30255_170x170mm.jpg,980,24212,Richmond,virginiacommonwealthuniversity,23284,,75,36,,,VA,171,3.6,vcu,National Universities,171,overall,234030,TRUE,TRUE,2.7,32942,2.3,Virginia Commonwealth University,national-universities,,VCU,national-universities,171,public,,ranked,3735
,,FALSE,21,,,950,23684,Kent,kentstateuniversity,44242,,85,35,,,OH,176,3.4,kent-state-university,National Universities,176,overall,203517,TRUE,TRUE,2.6,18376,,Kent State University,national-universities,,,national-universities,176,public,,ranked,3051
,,FALSE,21,https://www.usnews.com/img/college-photo_10458.jpg,https://www.usnews.com/img/college-photo_10458_170x170mm.jpg,940,4384,Moon Township,robertmorrisuniversity,15108,,80,35,,,PA,176,3.5,robert-morris-university-pennsylvania,National Universities,176,overall,215655,TRUE,TRUE,2.1,29420,2.4,Robert Morris University,national-universities,,,national-universities,176,private,,ranked,3359
,,FALSE,22,https://www.usnews.com/img/college-photo_6119.jpg,https://www.usnews.com/img/college-photo_6119_170x170mm.jpg,1020,29963,Lubbock,texastechuniversity,79409,,63,35,,,TX,176,3.5,texas-tech-university,National Universities,176,overall,229115,TRUE,TRUE,2.8,23011,2.6,Texas Tech University,national-universities,,,national-universities,176,public,,ranked,3644
,,FALSE,23,https://www.usnews.com/img/college-photo_2334.jpg,https://www.usnews.com/img/college-photo_2334_170x170mm.jpg,1020,2214,Jackson,unionuniversity,38305,,63,35,,,TN,176,,union-university,National Universities,176,overall,221971,TRUE,TRUE,,31580,2.7,Union University,national-universities,,,national-universities,176,private,,ranked,3528
,,FALSE,20,,,920,5150,West Hartford,universityofhartford,6117,,72,35,,,CT,176,,university-of-hartford,National Universities,176,overall,129525,TRUE,TRUE,2.4,38910,2.8,University of Hartford,national-universities,,,national-universities,176,private,,ranked,1422
,,FALSE,21,https://www.usnews.com/img/college-photo_4848.jpg,https://www.usnews.com/img/college-photo_4848_170x170mm.jpg,955,1661,Madison,edgewoodcollege,53711,,78,34,,,WI,181,3.4,edgewood-college,National Universities,181,overall,238661,TRUE,TRUE,,28500,,Edgewood College,national-universities,,,national-universities,181,private,,ranked,3848
,,FALSE,21,https://www.usnews.com/img/college-photo_33519.jpg,https://www.usnews.com/img/college-photo_33519_170x170mm.jpg,960,1929,Cambridge,lesleyuniversity,2138,,64,34,,,MA,181,3.3,lesley-university,National Universities,181,overall,166452,TRUE,TRUE,,26550,,Lesley University,national-universities,,,national-universities,181,private,,ranked,2160
,,FALSE,22,https://www.usnews.com/img/college-photo_19565.jpg,https://www.usnews.com/img/college-photo_19565_170x170mm.jpg,990,2986,Nashville,lipscombuniversity,37204,,61,34,,,TN,181,3.6,lipscomb,National Universities,181,overall,219976,TRUE,TRUE,,30932,2.5,Lipscomb University,national-universities,,,national-universities,181,private,,ranked,3486
,,FALSE,20,https://www.usnews.com/img/college-photo_8554.jpg,https://www.usnews.com/img/college-photo_8554_170x170mm.jpg,910,5290,Boston,suffolkuniversity,2108,,84,34,,,MA,181,3.2,suffolk-university,National Universities,181,overall,168005,TRUE,TRUE,2.2,37270,2,Suffolk University,national-universities,,,national-universities,181,private,,ranked,2218
,,FALSE,21,https://www.usnews.com/dims4/USNEWS/aaebb40/17177859217/resize/800x540/quality/85/?url=www.usnews.com%2Fcmsmedia%2Fef%2F8e%2Fd81537cb4549b010096144298bc3%2F160727-university-of-maine-hero-stock.jpg,https://www.usnews.com/dims4/USNEWS/db5c194/17177859217/resize/170x170/quality/85/?url=www.usnews.com%2Fcmsmedia%2Fef%2F8e%2Fd81537cb4549b010096144298bc3%2F160727-university-of-maine-hero-stock.jpg,950,9323,Orono,universityofmaine,4469,,90,34,,,ME,181,3.2,university-of-maine,National Universities,181,overall,161253,TRUE,TRUE,2.4,30282,2.2,University of Maine,national-universities,,UMaine,national-universities,181,public,,ranked,2053
,,FALSE,21,,,960,9788,Laramie,universityofwyoming,82071,,95,34,,,WY,181,3.5,university-of-wyoming,National Universities,181,overall,240727,TRUE,TRUE,2.5,16827,2.2,University of Wyoming,national-universities,,,national-universities,181,public,,ranked,3932
,,FALSE,21,https://www.usnews.com/img/college-photo_11672.jpg,https://www.usnews.com/img/college-photo_11672_170x170mm.jpg,930,5770,Azusa,azusapacificuniversity,91702,,84,33,,,CA,187,3.7,azusa-pacific,National Universities,187,overall,109785,TRUE,TRUE,,36120,,Azusa Pacific University,national-universities,,,national-universities,187,private,,ranked,1117
,,FALSE,20,https://www.usnews.com/img/college-photo_23667.jpg,https://www.usnews.com/img/college-photo_23667_170x170mm.jpg,990,17011,Muncie,ballstateuniversity,47306,,62,33,,,IN,187,3.5,ball-state,National Universities,187,overall,150136,TRUE,TRUE,2.6,25938,,Ball State University,national-universities,,,national-universities,187,public,,ranked,1786
,,FALSE,15,https://www.usnews.com/img/college-photo_29798.jpg,https://www.usnews.com/img/college-photo_29798_170x170mm.jpg,870,16810,Montclair,montclairstateuniversity,7043,,66,33,,,NJ,187,3.2,montclair-state-university,National Universities,187,overall,185590,TRUE,TRUE,2.2,20566,,Montclair State University,national-universities,,,national-universities,187,public,,ranked,2617
,,FALSE,21,https://www.usnews.com/img/college-photo_898.jpg,https://www.usnews.com/img/college-photo_898_170x170mm.jpg,940,8914,New York,paceuniversity,10038,,84,33,,,NY,187,3.3,pace-university,National Universities,187,overall,194310,TRUE,TRUE,2.6,44036,,Pace University,national-universities,,,national-universities,187,private,,ranked,2791
,,FALSE,21,https://www.usnews.com/img/college-photo_22108.jpg,https://www.usnews.com/img/college-photo_22108_170x170mm.jpg,930,22350,Morgantown,westvirginiauniversity,26506,,76,33,,,WV,187,3.5,wvu,National Universities,187,overall,238032,TRUE,TRUE,2.6,23616,2.4,West Virginia University,national-universities,,WVU,national-universities,187,public,,ranked,3827
,,FALSE,21,,,930,1688,Berrien Springs,andrewsuniversity,49104,,40,32,,,MI,192,3.5,andrews-university,National Universities,192,overall,168740,TRUE,TRUE,,28436,,Andrews University,national-universities,,,national-universities,192,private,,ranked,2238
,,FALSE,19,https://www.usnews.com/dims4/USNEWS/c49041b/17177859217/resize/800x540/quality/85/?url=www.usnews.com%2Fcmsmedia%2Fa8%2F33%2Fb7dfd2aa48389275cbdc9397eb47%2F160727-indiana-university-purdue-university-indianapolis-hero-stock.jpg,https://www.usnews.com/dims4/USNEWS/f6d315d/17177859217/resize/170x170/quality/85/?url=www.usnews.com%2Fcmsmedia%2Fa8%2F33%2Fb7dfd2aa48389275cbdc9397eb47%2F160727-indiana-university-purdue-university-indianapolis-hero-stock.jpg,890,21748,Indianapolis,indianauniversitypurdueuniversityindianapolis,46202,,74,32,,,IN,192,3.5,iupui,National Universities,192,overall,151111,TRUE,TRUE,,29806,2.5,Indiana University-Purdue University--Indianapolis,national-universities,,IUPUI Indiana University-Purdue University Indianapolis Indiana University Purdue University Indianapolis,national-universities,192,public,,ranked,1813
,,FALSE,23,https://www.usnews.com/img/college-photo_10119.jpg,https://www.usnews.com/img/college-photo_10119_170x170mm.jpg,1040,35871,Houston,universityofhouston,77204,,59,32,,,TX,192,,university-of-houston,National Universities,192,overall,225511,TRUE,TRUE,2.9,27337,2.6,University of Houston,national-universities,,,national-universities,192,public,,ranked,3652
,,FALSE,19,https://www.usnews.com/img/college-photo_21147.jpg,https://www.usnews.com/img/college-photo_21147_170x170mm.jpg,950,20215,Albuquerque,universityofnewmexico,87131,,47,32,,,NM,192,3.4,university-of-new-mexico,National Universities,192,overall,187985,TRUE,TRUE,2.7,22412,2.6,University of New Mexico,national-universities,,,national-universities,192,public,,ranked,10313
,,FALSE,21,https://www.usnews.com/img/college-photo_25490.jpg,https://www.usnews.com/img/college-photo_25490_170x170mm.jpg,960,11255,Grand Forks,universityofnorthdakota,58202,,84,32,,,ND,192,3.4,university-of-north-dakota,National Universities,192,overall,200280,TRUE,TRUE,2.4,21462,,University of North Dakota,national-universities,,,national-universities,192,public,,ranked,3005
,,FALSE,21,https://www.usnews.com/img/college-photo_2538.jpg,https://www.usnews.com/img/college-photo_2538_170x170mm.jpg,930,3591,Chester,wideneruniversity,19013,,70,32,,,PA,192,3.5,widener-university,National Universities,192,overall,216852,TRUE,TRUE,2,44166,2.5,Widener University,national-universities,,,national-universities,192,private,,ranked,3313
,,FALSE,18,https://www.usnews.com/img/college-photo_15275.jpg,https://www.usnews.com/img/college-photo_15275_170x170mm.jpg,820,12027,Las Cruces,newmexicostateuniversity,88003,,60,31,,,NM,198,3.5,new-mexico-state-university,National Universities,198,overall,188030,TRUE,TRUE,2.4,22701,2.3,New Mexico State University,national-universities,,NMSU,national-universities,198,public,,ranked,2657
,,FALSE,21,https://www.usnews.com/img/college-photo_28974.jpg,https://www.usnews.com/img/college-photo_28974_170x170mm.jpg,1000,12010,Fargo,northdakotastateuniversity,58108,,93,31,,,ND,198,3.4,north-dakota-state,National Universities,198,overall,200332,TRUE,TRUE,2.2,20571,2,North Dakota State University,national-universities,,,national-universities,198,public,,ranked,9265
,,FALSE,22,https://www.usnews.com/img/college-photo_33877.jpg,https://www.usnews.com/img/college-photo_33877_170x170mm.jpg,1000,4295,Ft. Lauderdale,novasoutheasternuniversity,33314,,53,31,,,FL,198,,nova,National Universities,198,overall,136215,TRUE,TRUE,,29940,,Nova Southeastern University,national-universities,,,national-universities,198,private,,ranked,1509
,,FALSE,22,https://www.usnews.com/dims4/USNEWS/b1ab992/17177859217/resize/800x540/quality/85/?url=www.usnews.com%2Fcmsmedia%2F09%2F18%2F29b60cbe413c948d6f9713c99aa0%2F160727-university-of-north-carolina-charlotte-hero-stock.png,https://www.usnews.com/dims4/USNEWS/5b52b7a/17177859217/resize/170x170/quality/85/?url=www.usnews.com%2Fcmsmedia%2F09%2F18%2F29b60cbe413c948d6f9713c99aa0%2F160727-university-of-north-carolina-charlotte-hero-stock.png,1030,23404,Charlotte,universityofnorthcarolinacharlotte,28223,,62,31,,,NC,198,3.9,unc-charlotte,National Universities,198,overall,199139,TRUE,TRUE,2.8,20268,2.6,University of North Carolina--Charlotte,national-universities,,UNC University of North Carolina Charlotte,national-universities,198,public,,ranked,2975
,,FALSE,20,https://www.usnews.com/img/college-photo_18886.jpg,https://www.usnews.com/img/college-photo_18886_170x170mm.jpg,920,14852,Bowling Green,bowlinggreenstateuniversity,43403,,75,30,,,OH,202,3.4,bowling-green-state-university,National Universities,202,overall,201441,TRUE,TRUE,2.5,18593,,Bowling Green State University,national-universities,,BGSU,national-universities,202,public,,ranked,3018
,,FALSE,19,https://www.usnews.com/img/college-photo_23456.jpg,https://www.usnews.com/img/college-photo_23456_170x170mm.jpg,920,34576,Fullerton,californiastateuniversityfullerton,92831,,48,30,,,CA,202,3.6,cal-state-fullerton,National Universities,202,overall,110565,TRUE,TRUE,2.6,17460,2.8,California State University--Fullerton,national-universities,,Cal State University Fullerton California State University Fullerton,national-universities,202,public,,ranked,1137
,,FALSE,19,https://www.usnews.com/img/college-photo_15339.jpg,https://www.usnews.com/img/college-photo_15339_170x170mm.jpg,1030,3223,Dallas,dallasbaptistuniversity,75211,,43,30,,,TX,202,3.7,dallas-baptist-university,National Universities,202,overall,224226,TRUE,TRUE,,27480,,Dallas Baptist University,national-universities,,,national-universities,202,private,,ranked,3560
,,FALSE,21,https://www.usnews.com/dims4/USNEWS/97444d6/17177859217/resize/800x540/quality/85/?url=www.usnews.com%2Fcmsmedia%2F82%2F6e%2F96e30a244f29ada9964fad5eb6cb%2F160728-university-of-massachusetts-boston-hero-stock.png,https://www.usnews.com/dims4/USNEWS/09a0a1e/17177859217/resize/170x170/quality/85/?url=www.usnews.com%2Fcmsmedia%2F82%2F6e%2F96e30a244f29ada9964fad5eb6cb%2F160728-university-of-massachusetts-boston-hero-stock.png,960,12847,Boston,universityofmassachusettsboston,2125,,69,30,,,MA,202,3.3,umass-boston,National Universities,202,overall,166638,TRUE,TRUE,2.6,32985,,University of Massachusetts--Boston,national-universities,,UMass University of Massachusetts Boston,national-universities,202,public,,ranked,2222
,,FALSE,21,https://www.usnews.com/img/college-photo_20610.jpg,https://www.usnews.com/img/college-photo_20610_170x170mm.jpg,970,18191,Reno,universityofnevadareno,89557,,83,30,,,NV,202,3.6,university-of-nevada,National Universities,202,overall,182290,TRUE,TRUE,2.3,21787,2.2,University of Nevada--Reno,national-universities,,University of Nevada Reno,national-universities,202,public,,ranked,2568
,,FALSE,20,https://www.usnews.com/img/college-photo_8168.jpg,https://www.usnews.com/img/college-photo_8168_170x170mm.jpg,890,19923,Mount Pleasant,centralmichiganuniversity,48859,,72,29,,,MI,207,3.4,central-michigan-university,National Universities,207,overall,169248,TRUE,TRUE,2.3,23670,2.6,Central Michigan University,national-universities,,,national-universities,207,public,,ranked,2243
,,FALSE,20,,,970,22969,Greenville,eastcarolinauniversity,27858,,70,29,,,NC,207,3.8,east-carolina-university,National Universities,207,overall,198464,TRUE,TRUE,2.2,23420,2.5,East Carolina University,national-universities,,ECU,national-universities,207,public,,ranked,2923
,,FALSE,19,,,900,7769,Tallahassee,floridaamuniversity,32307,,31,29,,,FL,207,3.5,famu,National Universities,207,overall,133650,TRUE,TRUE,,17725,2.3,Florida A&M University,national-universities,,Florida A & M Florida A and M FAM,national-universities,207,public,,ranked,1480
,,FALSE,21,https://www.usnews.com/img/college-photo_16155.jpg,https://www.usnews.com/img/college-photo_16155_170x170mm.jpg,1010,14400,Bozeman,montanastateuniversity,59717,,83,29,,,MT,207,3.4,montana-state,National Universities,207,overall,180461,TRUE,TRUE,2.3,23042,2.2,Montana State University,national-universities,,MSU,national-universities,207,public,,ranked,2532
,,FALSE,19,https://www.usnews.com/img/college-photo_9352.jpg,https://www.usnews.com/img/college-photo_9352_170x170mm.jpg,950,7239,Fairbanks,universityofalaskafairbanks,99775,,73,29,,,AK,207,3.3,alaska-fairbanks,National Universities,207,overall,102614,TRUE,TRUE,2.2,23534,2.1,University of Alaska--Fairbanks,national-universities,,University of Alaska Fairbanks,national-universities,207,public,,ranked,1063
,,FALSE,21,https://www.usnews.com/img/college-photo_12603.jpg,https://www.usnews.com/img/college-photo_12603_170x170mm.jpg,960,14622,Denver,universityofcoloradodenver,80217,,61,29,,,CO,207,3.4,university-of-colorado-denver,National Universities,207,overall,126562,TRUE,TRUE,2.9,31209,2.2,University of Colorado--Denver,national-universities,,UC Denver University of Colorado Denver,national-universities,207,public,,ranked,6740
,,FALSE,20,https://www.usnews.com/img/college-photo_33772.jpg,https://www.usnews.com/img/college-photo_33772_170x170mm.jpg,910,6999,North Dartmouth,universityofmassachusettsdartmouth,2747,,76,29,,,MA,207,3.2,umass-dartmouth,National Universities,207,overall,167987,TRUE,TRUE,2.6,28285,2.2,University of Massachusetts--Dartmouth,national-universities,,UMass University of Massachusetts Dartmouth,national-universities,207,public,,ranked,2210
,,FALSE,20,https://www.usnews.com/img/college-photo_11345.jpg,https://www.usnews.com/img/college-photo_11345_170x170mm.jpg,950,10077,Missoula,universityofmontana,59812,,92,29,,,MT,207,3.3,university-of-montana,National Universities,207,overall,180489,TRUE,TRUE,2.6,24943,,University of Montana,national-universities,,UMT,national-universities,207,public,,ranked,2536
,,FALSE,19,https://www.usnews.com/img/college-photo_31731.jpg,https://www.usnews.com/img/college-photo_31731_170x170mm.jpg,,18313,Kalamazoo,westernmichiganuniversity,49008,,82,29,,,MI,207,3.3,western-michigan-university,National Universities,207,overall,172699,TRUE,TRUE,2.5,14699,,Western Michigan University,national-universities,,,national-universities,207,public,,ranked,2330
,,FALSE,23,https://www.usnews.com/img/college-photo_20246.jpg,https://www.usnews.com/img/college-photo_20246_170x170mm.jpg,1030,45813,Miami,floridainternationaluniversity,33199,,49,28,,,FL,216,3.9,fiu,National Universities,216,overall,133951,TRUE,TRUE,2.6,18956,2.1,Florida International University,national-universities,,FIU,national-universities,216,public,,ranked,9635
,,FALSE,21,https://www.usnews.com/img/college-photo_12980.jpg,https://www.usnews.com/img/college-photo_12980_170x170mm.jpg,980,11281,Ruston,louisianatechuniversity,71272,,63,28,,,LA,216,3.7,la-tech,National Universities,216,overall,159647,TRUE,TRUE,2.3,18438,2.2,Louisiana Tech University,national-universities,,,national-universities,216,public,,ranked,2008
,,FALSE,20,https://www.usnews.com/img/college-photo_20305.jpg,https://www.usnews.com/img/college-photo_20305_170x170mm.jpg,890,10959,Brookings,southdakotastateuniversity,57007,,91,28,,,SD,216,3.4,south-dakota-state,National Universities,216,overall,219356,TRUE,TRUE,,11403,,South Dakota State University,national-universities,,,national-universities,216,public,,ranked,3471
,,FALSE,19,https://www.usnews.com/img/college-photo_11308.jpg,https://www.usnews.com/img/college-photo_11308_170x170mm.jpg,880,12182,Carbondale,southernillinoisuniversitycarbondale,62901,,77,28,,,IL,216,3.1,southern-illinois-carbondale,National Universities,216,overall,149222,TRUE,TRUE,2.5,13936,2,Southern Illinois University--Carbondale,national-universities,,Southern Illinois University Carbondale Southern Illinois University Carbondale,national-universities,216,public,,ranked,1758
,,FALSE,25,https://www.usnews.com/dims4/USNEWS/fbff79f/17177859217/resize/800x540/quality/85/?url=www.usnews.com%2Fcmsmedia%2F52%2Fc0%2F55e189ed4abcbc0f146441f37339%2F160727-university-of-alabama-huntsville-hero-stock.jpg,https://www.usnews.com/dims4/USNEWS/7b5d9cc/17177859217/resize/170x170/quality/85/?url=www.usnews.com%2Fcmsmedia%2F52%2Fc0%2F55e189ed4abcbc0f146441f37339%2F160727-university-of-alabama-huntsville-hero-stock.jpg,1060,6507,Huntsville,universityofalabamahuntsville,35899,,76,28,,,AL,216,3.8,uah,National Universities,216,overall,100706,TRUE,TRUE,2.5,21480,2.4,University of Alabama--Huntsville,national-universities,,University of Alabama Huntsville,national-universities,216,public,,ranked,1055
,,FALSE,21,https://www.usnews.com/img/college-photo_22581.jpg,https://www.usnews.com/img/college-photo_22581_170x170mm.jpg,980,11708,Kansas City,universityofmissourikansascity,64110,,62,28,,,MO,216,3.4,umkc,National Universities,216,overall,178402,TRUE,TRUE,2.6,25999,,University of Missouri--Kansas City,national-universities,,UMKC University of Missouri Kansas City,national-universities,216,public,,ranked,2518
,,FALSE,20,https://www.usnews.com/dims4/USNEWS/eb721b2/17177859217/resize/800x540/quality/85/?url=www.usnews.com%2Fcmsmedia%2Ffb%2F9e%2Ff55f73644f1a9590af6e341f786b%2F160727-utah-state-university-hero-stock.jpg,https://www.usnews.com/dims4/USNEWS/3b15cad/17177859217/resize/170x170/quality/85/?url=www.usnews.com%2Fcmsmedia%2Ffb%2F9e%2Ff55f73644f1a9590af6e341f786b%2F160727-utah-state-university-hero-stock.jpg,980,24838,Logan,utahstateuniversity,84322,,90,28,,,UT,216,3.5,utah-state,National Universities,216,overall,230728,TRUE,TRUE,2.5,20726,2.4,Utah State University,national-universities,,,national-universities,216,public,,ranked,3677
,,FALSE,20,https://www.usnews.com/img/college-photo_23917.jpg,https://www.usnews.com/img/college-photo_23917_170x170mm.jpg,950,4536,Ashland,ashlanduniversity,44805,,72,27,,,OH,223,3.4,ashland-university,National Universities,223,overall,201104,TRUE,TRUE,,20700,,Ashland University,national-universities,,,national-universities,223,private,,ranked,3012
,,FALSE,20,https://www.usnews.com/img/college-photo_27667.jpg,https://www.usnews.com/img/college-photo_27667_170x170mm.jpg,,3171,Lisle,benedictineuniversity,60532,,73,27,,,IL,223,3.4,benedictine-university,National Universities,223,overall,145619,TRUE,TRUE,,33900,,Benedictine University,national-universities,,,national-universities,223,private,,ranked,1767
,,FALSE,16,,,800,21528,Fresno,californiastateuniversityfresno,93740,,54,27,,,CA,223,3.5,csu-fresno,National Universities,223,overall,110556,TRUE,TRUE,2.3,17929,2.7,California State University--Fresno,national-universities,,Cal State University Fresno California State University Fresno,national-universities,223,public,,ranked,1147
,,FALSE,18,https://www.usnews.com/img/college-photo_22368.jpg,https://www.usnews.com/img/college-photo_22368_170x170mm.jpg,870,2362,Boiling Springs,gardnerwebbuniversity,28017,,52,27,,,NC,223,3.7,gardner-webb,National Universities,223,overall,198561,TRUE,TRUE,,30740,,Gardner-Webb University,national-universities,,Gardner Webb Gardner Webb University,national-universities,223,private,,ranked,2929
,,FALSE,20,https://www.usnews.com/img/college-photo_9094.jpg,https://www.usnews.com/img/college-photo_9094_170x170mm.jpg,950,25455,Atlanta,georgiastateuniversity,30302,,53,27,,,GA,223,3.4,georgia-state,National Universities,223,overall,139940,TRUE,TRUE,3.1,29432,,Georgia State University,national-universities,,,national-universities,223,public,,ranked,1574
,,FALSE,19,https://www.usnews.com/img/college-photo_6073.jpg,https://www.usnews.com/img/college-photo_6073_170x170mm.jpg,880,2099,Winchester,shenandoahuniversity,22601,,88,27,,,VA,223,3.4,shenandoah-university,National Universities,223,overall,233541,TRUE,TRUE,2,31920,,Shenandoah University,national-universities,,,national-universities,223,private,,ranked,3737
,,FALSE,19,,,830,7500,Vermillion,universityofsouthdakota,57069,,88,27,,,SD,223,3,university-of-south-dakota,National Universities,223,overall,219471,TRUE,TRUE,2.4,11688,,University of South Dakota,national-universities,,,national-universities,223,public,,ranked,10300
,,FALSE,20,https://www.usnews.com/img/college-photo_1083.jpg,https://www.usnews.com/img/college-photo_1083_170x170mm.jpg,983,17280,Detroit,waynestateuniversity,48202,,68,27,,,MI,223,3.4,wayne-state,National Universities,223,overall,172644,TRUE,TRUE,2.4,28590,2.2,Wayne State University,national-universities,,,national-universities,223,public,,ranked,2329
,,FALSE,16,https://www.usnews.com/img/college-photo_2143.jpg,https://www.usnews.com/img/college-photo_2143_170x170mm.jpg,790,1424,Springfield,americaninternationalcollege,1109,,64,,,,MA,-1,,american-international-college,National Universities,231-300,overall,164447,FALSE,TRUE,,33140,,American International College,national-universities,,,national-universities,-1,private,,rnp,2114
,,FALSE,,,,930,5133,Augusta,augustauniversity,30912,,74,,,,GA,-1,,georgia-health-sciences-university,National Universities,231-300,overall,482149,FALSE,TRUE,,23606,,Augusta University,national-universities,,,national-universities,-1,public,,rnp,1579
,,FALSE,18,,,850,3541,Miami Shores,barryuniversity,33161,,62,,,,FL,-1,,barry-university,National Universities,231-300,overall,132471,FALSE,TRUE,2,29700,,Barry University,national-universities,,,national-universities,-1,private,,rnp,1466
,,FALSE,20,https://www.usnews.com/img/college-photo_19280.jpg,https://www.usnews.com/img/college-photo_19280_170x170mm.jpg,910,20209,Boise,boisestateuniversity,83725,,82,,,,ID,-1,3.4,boise-state-university,National Universities,231-300,overall,142115,FALSE,TRUE,2.5,22642,2.2,Boise State University,national-universities,,,national-universities,-1,public,,rnp,1616
,,FALSE,18,,,973,1534,Milwaukee,cardinalstritchuniversity,53217,,82,,,,WI,-1,3.1,cardinal-stritch-university,National Universities,231-300,overall,238430,FALSE,TRUE,,28844,,Cardinal Stritch University,national-universities,,,national-universities,-1,private,,rnp,3837
,,FALSE,18,https://www.usnews.com/img/college-photo_23686.jpg,https://www.usnews.com/img/college-photo_23686_170x170mm.jpg,820,3093,Atlanta,clarkatlantauniversity,30314,,72,,,,GA,-1,3.2,clark-atlanta-university,National Universities,231-300,overall,138947,FALSE,TRUE,,23082,,Clark Atlanta University,national-universities,,,national-universities,-1,private,,rnp,1551
,,FALSE,19,https://www.usnews.com/img/college-photo_22561.jpg,https://www.usnews.com/img/college-photo_22561_170x170mm.jpg,890,12433,Cleveland,clevelandstateuniversity,44115,,88,,,,OH,-1,3.3,cleveland-state-university,National Universities,231-300,overall,202134,FALSE,TRUE,2.2,13848,2.1,Cleveland State University,national-universities,,CSU,national-universities,-1,public,,rnp,3032
,,FALSE,19,https://www.usnews.com/img/college-photo_8457.jpg,https://www.usnews.com/img/college-photo_8457_170x170mm.jpg,910,17541,Ypsilanti,easternmichiganuniversity,48197,,73,,,,MI,-1,3.3,eastern-michigan-university,National Universities,231-300,overall,169798,FALSE,TRUE,2.2,11530,,Eastern Michigan University,national-universities,,EMU,national-universities,-1,public,,rnp,2259
,,FALSE,20,,,920,11065,Johnson City,easttennesseestateuniversity,37614,,80,,,,TN,-1,3.5,east-tennessee-state-university,National Universities,231-300,overall,220075,FALSE,TRUE,2.1,26463,,East Tennessee State University,national-universities,,ETSU,national-universities,-1,public,,rnp,3487
,,FALSE,20,https://www.usnews.com/img/college-photo_1284.jpg,https://www.usnews.com/img/college-photo_1284_170x170mm.jpg,950,25402,Boca Raton,floridaatlanticuniversity,33431,,60,,,,FL,-1,4,fau,National Universities,231-300,overall,133669,FALSE,TRUE,2.4,21595,,Florida Atlantic University,national-universities,,,national-universities,-1,public,,rnp,1481
,,FALSE,22,https://www.usnews.com/img/college-photo_22722.jpg,https://www.usnews.com/img/college-photo_22722_170x170mm.jpg,1030,18005,Statesboro,georgiasouthernuniversity,30460,,65,,,,GA,-1,3.3,georgia-southern,National Universities,231-300,overall,139931,FALSE,TRUE,2.3,18692,2.4,Georgia Southern University,national-universities,,,national-universities,-1,public,,rnp,1572
,School refused to fill out U.S. News statistical survey. Data that appear are from school in previous years or from another source such as the National Center for Education Statistics.,TRUE,,,,,,Phoenix,grandcanyonuniversity,85017,,43,,,,AZ,-1,,grand-canyon-university,National Universities,231-300,overall,104717,FALSE,TRUE,,17050,,Grand Canyon University,national-universities,,,national-universities,-1,proprietary,,rnp,1074
,,FALSE,16,https://www.usnews.com/img/college-photo_11456.jpg,https://www.usnews.com/img/college-photo_11456_170x170mm.jpg,790,11202,Terre Haute,indianastateuniversity,47809,,86,,,,IN,-1,3.1,indiana-state,National Universities,231-300,overall,151324,FALSE,TRUE,2.4,19454,,Indiana State University,national-universities,,,national-universities,-1,public,,rnp,9563
,,FALSE,,https://www.usnews.com/img/college-photo_12071.jpg,https://www.usnews.com/img/college-photo_12071_170x170mm.jpg,840,10618,Indiana,indianauniversityofpennsylvania,15705,,92,,,,PA,-1,,iup,National Universities,231-300,overall,213020,FALSE,TRUE,2.1,15882,,Indiana University of Pennsylvania,national-universities,,,national-universities,-1,public,,rnp,3277
,,FALSE,16,,,810,7492,Jackson,jacksonstateuniversity,39217,,69,,,,MS,-1,2.9,jackson-state,National Universities,231-300,overall,175856,FALSE,TRUE,,17614,,Jackson State University,national-universities,,,national-universities,-1,public,,rnp,2410
,,FALSE,21,,,1000,32166,Kennesaw,kennesawstateuniversity,30144,,59,,,,GA,-1,3.3,kennesaw-state-university,National Universities,231-300,overall,140164,FALSE,TRUE,2.7,21158,2.4,Kennesaw State University,national-universities,,,national-universities,-1,public,,rnp,1577
,,FALSE,18,,,860,9326,Beaumont,lamaruniversity,77710,,76,,,,TX,-1,3.2,lamar-university,National Universities,231-300,overall,226091,FALSE,TRUE,2,22561,,Lamar University,national-universities,,,national-universities,-1,public,,rnp,3581
,,FALSE,21,,,950,47050,Lynchburg,libertyuniversity,24502,,28,,,,VA,-1,3.5,liberty-university,National Universities,231-300,overall,232557,FALSE,TRUE,,24304,2.2,Liberty University,national-universities,,,national-universities,-1,private,,rnp,10392
,,FALSE,20,https://www.usnews.com/img/college-photo_23832.jpg,https://www.usnews.com/img/college-photo_23832_170x170mm.jpg,920,7549,St. Charles,lindenwooduniversity,63301,,55,,,,MO,-1,3.3,lindenwood,National Universities,231-300,overall,177968,FALSE,TRUE,,16960,,Lindenwood University,national-universities,,,national-universities,-1,private,,rnp,2480
,,FALSE,19,https://www.usnews.com/img/college-photo_12528.jpg,https://www.usnews.com/img/college-photo_12528_170x170mm.jpg,950,19693,Murfreesboro,middletennesseestateuniversity,37132,,69,,,,TN,-1,3.4,middle-tennessee-state-university,National Universities,231-300,overall,220978,FALSE,TRUE,2.2,27578,,Middle Tennessee State University,national-universities,,,national-universities,-1,public,,rnp,3510
,,FALSE,16,,,800,6362,Baltimore,morganstateuniversity,21251,,60,,,,MD,-1,3,morgan-state,National Universities,231-300,overall,163453,FALSE,TRUE,2,17833,,Morgan State University,national-universities,,,national-universities,-1,public,,rnp,2083
,School refused to fill out U.S. News statistical survey. Data that appear are from school in previous years or from another source such as the National Center for Education Statistics.,TRUE,,https://www.usnews.com/dims4/USNEWS/cb4f4c7/17177859217/resize/800x540/quality/85/?url=www.usnews.com%2Fcmsmedia%2Ffa%2F61%2F47a2927445519082097d4ebcc366%2F160727-national-louis-university-hero-stock.jpg,https://www.usnews.com/dims4/USNEWS/bf21f1e/17177859217/resize/170x170/quality/85/?url=www.usnews.com%2Fcmsmedia%2Ffa%2F61%2F47a2927445519082097d4ebcc366%2F160727-national-louis-university-hero-stock.jpg,,,Chicago,nationallouisuniversity,60603,,81,,,,IL,-1,,national-louis-university,National Universities,231-300,overall,147536,FALSE,TRUE,,10380,,National Louis University,national-universities,,National Louis University,national-universities,-1,private,,rnp,1733
,,FALSE,18,https://www.usnews.com/img/college-photo_12365.jpg,https://www.usnews.com/img/college-photo_12365_170x170mm.jpg,850,9668,Greensboro,northcarolinaatstateuniversity,27411,,54,,,,NC,-1,3.5,north-carolina-at,National Universities,231-300,overall,199102,FALSE,TRUE,,19416,2.2,North Carolina A&T State University,national-universities,,North Carolina A & T State University North Carolina A and T State University,national-universities,-1,public,,rnp,2905
,,FALSE,20,https://www.usnews.com/img/college-photo_9296.jpg,https://www.usnews.com/img/college-photo_9296_170x170mm.jpg,940,26506,Flagstaff,northernarizonauniversity,86011,,78,,,,AZ,-1,3.6,northern-arizona-university,National Universities,231-300,overall,105330,FALSE,TRUE,2.5,24841,2.8,Northern Arizona University,national-universities,,NAU,national-universities,-1,public,,rnp,1082
,,FALSE,19,,,,14079,DeKalb,northernillinoisuniversity,60115,,52,,,,IL,-1,3.3,niu,National Universities,231-300,overall,147703,FALSE,TRUE,2.6,23817,2.7,Northern Illinois University,national-universities,,,national-universities,-1,public,,rnp,1737
,,FALSE,20,https://www.usnews.com/img/college-photo_21696.jpg,https://www.usnews.com/img/college-photo_21696_170x170mm.jpg,805,16568,Rochester,oaklanduniversity,48309,,86,,,,MI,-1,3.4,oakland-university,National Universities,231-300,overall,171571,FALSE,TRUE,2,24735,,Oakland University,national-universities,,,national-universities,-1,public,,rnp,2307
,,FALSE,18,https://www.usnews.com/dims4/USNEWS/4536637/17177859217/resize/800x540/quality/85/?url=www.usnews.com%2Fcmsmedia%2F85%2F6c%2F531a497843c2845b9f39e6acb237%2F160728-old-dominion-university-hero-stock.jpg,https://www.usnews.com/dims4/USNEWS/8fb32f6/17177859217/resize/170x170/quality/85/?url=www.usnews.com%2Fcmsmedia%2F85%2F6c%2F531a497843c2845b9f39e6acb237%2F160728-old-dominion-university-hero-stock.jpg,890,19793,Norfolk,olddominionuniversity,23529,,85,,,,VA,-1,3.3,old-dominion,National Universities,231-300,overall,232982,FALSE,TRUE,2.5,28200,2.2,Old Dominion University,national-universities,,ODU,national-universities,-1,public,,rnp,3728
,,FALSE,19,https://www.usnews.com/img/college-photo_5569.jpg,https://www.usnews.com/img/college-photo_5569_170x170mm.jpg,930,21633,Portland,portlandstateuniversity,97207,,89,,,,OR,-1,3.4,portland-state,National Universities,231-300,overall,209807,FALSE,TRUE,2.5,21180,2.2,Portland State University,national-universities,,PSU,national-universities,-1,public,,rnp,3216
,,FALSE,15,https://www.usnews.com/img/college-photo_15497.jpg,https://www.usnews.com/img/college-photo_15497_170x170mm.jpg,750,7455,Prairie View,prairieviewamuniversity,77446,,85,,,,TX,-1,3,prairie-view-am,National Universities,231-300,overall,227526,FALSE,TRUE,,10059,,Prairie View A&M University,national-universities,,Prairie View A & M University Prairie View A and M University,national-universities,-1,public,,rnp,3630
,,FALSE,19,https://www.usnews.com/img/college-photo_25443.jpg,https://www.usnews.com/img/college-photo_25443_170x170mm.jpg,920,3806,Virginia Beach,regentuniversity,23464,,83,,,,VA,-1,3.5,regent-university,National Universities,231-300,overall,231651,FALSE,TRUE,,17450,,Regent University,national-universities,,,national-universities,-1,private,,rnp,30913
,,FALSE,19,,,870,17902,Huntsville,samhoustonstateuniversity,77340,,72,,,,TX,-1,,sam-houston-state,National Universities,231-300,overall,227881,FALSE,TRUE,2.1,22340,,Sam Houston State University,national-universities,,,national-universities,-1,public,,rnp,3606
,,FALSE,18,https://www.usnews.com/img/college-photo_15186.jpg,https://www.usnews.com/img/college-photo_15186_170x170mm.jpg,860,25945,San Francisco,sanfranciscostateuniversity,94132,,68,,,,CA,-1,3.2,sfsu,National Universities,231-300,overall,122597,FALSE,TRUE,2.5,19134,2.6,San Francisco State University,national-universities,,SFSU,national-universities,-1,public,,rnp,1154
,School refused to fill out U.S. News statistical survey. Data that appear are from school in previous years or from another source such as the National Center for Education Statistics.,TRUE,18,,,,,Louisville,spaldinguniversity,40203,,50,,,,KY,-1,,spalding-university,National Universities,231-300,overall,157757,FALSE,TRUE,,24388,,Spalding University,national-universities,,,national-universities,-1,private,,rnp,1960
,,FALSE,16,,,788,7007,Nashville,tennesseestateuniversity,37209,,53,,,,TN,-1,2.9,tennessee-state,National Universities,231-300,overall,221838,FALSE,TRUE,2,20178,,Tennessee State University,national-universities,,,national-universities,-1,public,,rnp,3522
,,FALSE,21,https://www.usnews.com/img/college-photo_33716.jpg,https://www.usnews.com/img/college-photo_33716_170x170mm.jpg,960,9437,Cookeville,tennesseetechnologicaluniversity,38505,,67,,,,TN,-1,3.6,tennessee-tech,National Universities,231-300,overall,221847,FALSE,TRUE,,26190,2.1,Tennessee Technological University,national-universities,,,national-universities,-1,public,,rnp,3523
,,FALSE,17,https://www.usnews.com/img/college-photo_23828.jpg,https://www.usnews.com/img/college-photo_23828_170x170mm.jpg,850,7605,Commerce,texasamuniversitycommerce,75429,,45,,,,TX,-1,3.3,texas-am-commerce,National Universities,231-300,overall,224554,FALSE,TRUE,2.1,20884,2.2,Texas A&M University--Commerce,national-universities,,Texas A & M University--Commerce Texas A and M University--Commerce Texas A&M University Commerce,national-universities,-1,public,,rnp,3565
,,FALSE,17,https://www.usnews.com/img/college-photo_17049.jpg,https://www.usnews.com/img/college-photo_17049_170x170mm.jpg,850,10212,Corpus Christi,texasamuniversitycorpuschristi,78412,,86,,,,TX,-1,3.3,texas-am-corpus-christi,National Universities,231-300,overall,224147,FALSE,TRUE,2.2,26061,2.5,Texas A&M University--Corpus Christi,national-universities,,Texas A & M University--Corpus Christi Texas A and M University--Corpus Christi Texas A&M University Corpus Christi,national-universities,-1,public,,rnp,11161
,,FALSE,17,https://www.usnews.com/img/college-photo_21940.jpg,https://www.usnews.com/img/college-photo_21940_170x170mm.jpg,850,6811,Kingsville,texasamuniversitykingsville,78363,,82,,,,TX,-1,3.3,texas-am-kingsville,National Universities,231-300,overall,228705,FALSE,TRUE,,20912,,Texas A&M University--Kingsville,national-universities,,Texas A & M University--Kingsville Texas A and M University--Kingsville Texas A&M University Kingsville,national-universities,-1,public,,rnp,3639
,,FALSE,15,https://www.usnews.com/img/college-photo_21721.jpg,https://www.usnews.com/img/college-photo_21721_170x170mm.jpg,715,6562,Houston,texassouthernuniversity,77004,,51,,,,TX,-1,2.9,texas-southern-university,National Universities,231-300,overall,229063,FALSE,TRUE,2.1,21240,,Texas Southern University,national-universities,,,national-universities,-1,public,,rnp,3642
,,FALSE,20,,,930,34244,San Marcos,texasstateuniversity,78666,,71,,,,TX,-1,,texas-state-university,National Universities,231-300,overall,228459,FALSE,TRUE,2.2,23071,,Texas State University,national-universities,,Texas State University San Marcos,national-universities,-1,public,,rnp,3615
,,FALSE,17,https://www.usnews.com/img/college-photo_3427.jpg,https://www.usnews.com/img/college-photo_3427_170x170mm.jpg,820,10408,Denton,texaswomansuniversity,76204,,86,,,,TX,-1,3.1,texas-womans-university,National Universities,231-300,overall,229179,FALSE,TRUE,,21816,,Texas Woman's University,national-universities,,Texas Womans University,national-universities,-1,public,,rnp,3646
,,FALSE,19,,,930,2092,Nashville,treveccanazareneuniversity,37210,,72,,,,TN,-1,3.4,trevecca-nazarene-university,National Universities,231-300,overall,221892,FALSE,TRUE,,25100,,Trevecca Nazarene University,national-universities,,,national-universities,-1,private,,rnp,3526
,,FALSE,19,https://www.usnews.com/img/college-photo_26026.jpg,https://www.usnews.com/img/college-photo_26026_170x170mm.jpg,880,1076,Deerfield,trinityinternationaluniversity,60015,,88,,,,IL,-1,3.2,trinity-international,National Universities,231-300,overall,149514,FALSE,TRUE,,30750,,Trinity International University,national-universities,,,national-universities,-1,private,,rnp,1772
,,FALSE,19,https://www.usnews.com/img/college-photo_6839.jpg,https://www.usnews.com/img/college-photo_6839_170x170mm.jpg,910,17416,Akron,universityofakron,44325,,96,,,,OH,-1,3.3,university-of-akron,National Universities,231-300,overall,200800,FALSE,TRUE,2.3,21863,2.1,University of Akron,national-universities,,,national-universities,-1,public,,rnp,3123
,,FALSE,19,https://www.usnews.com/img/college-photo_24337.jpg,https://www.usnews.com/img/college-photo_24337_170x170mm.jpg,930,9374,Little Rock,universityofarkansaslittlerock,72204,,77,,,,AR,-1,3.1,ualr,National Universities,231-300,overall,106245,FALSE,TRUE,2.5,19797,2,University of Arkansas--Little Rock,national-universities,,University of Arkansas Little Rock,national-universities,-1,public,,rnp,1101
,,FALSE,21,https://www.usnews.com/img/college-photo_17624.jpg,https://www.usnews.com/img/college-photo_17624_170x170mm.jpg,940,15998,Lafayette,universityoflouisianalafayette,70504,,52,,,,LA,-1,3.3,louisiana-lafayette,National Universities,231-300,overall,160658,FALSE,TRUE,2.3,23074,,University of Louisiana--Lafayette,national-universities,,University of Louisiana Lafayette,national-universities,-1,public,,rnp,2031
,,FALSE,19,,,920,7778,Monroe,universityoflouisianamonroe,71209,,86,,,,LA,-1,3.5,louisiana-monroe,National Universities,231-300,overall,159993,FALSE,TRUE,2,20381,,University of Louisiana--Monroe,national-universities,,University of Louisiana Monroe,national-universities,-1,public,,rnp,2020
,,FALSE,17,https://www.usnews.com/img/college-photo_27271.jpg,https://www.usnews.com/img/college-photo_27271_170x170mm.jpg,790,3278,Princess Anne,universityofmarylandeasternshore,21853,,38,,,,MD,-1,2.9,umes,National Universities,231-300,overall,163338,FALSE,TRUE,2,18048,2.4,University of Maryland--Eastern Shore,national-universities,,University of Maryland Eastern Shore,national-universities,-1,public,,rnp,2106
,,FALSE,19,https://www.usnews.com/img/college-photo_14484.jpg,https://www.usnews.com/img/college-photo_14484_170x170mm.jpg,890,17176,Memphis,universityofmemphis,38152,,94,,,,TN,-1,3.4,university-of-memphis,National Universities,231-300,overall,220862,FALSE,TRUE,2.7,21413,2.1,University of Memphis,national-universities,,,national-universities,-1,public,,rnp,3509
,,FALSE,21,https://www.usnews.com/img/college-photo_6729.jpg,https://www.usnews.com/img/college-photo_6729_170x170mm.jpg,940,13923,St. Louis,universityofmissouristlouis,63121,,71,,,,MO,-1,3.4,umsl,National Universities,231-300,overall,178420,FALSE,TRUE,2.6,27327,2.7,University of Missouri--St. Louis,national-universities,,University of Missouri St. Louis,national-universities,-1,public,,rnp,2519
,,FALSE,19,https://www.usnews.com/img/college-photo_29879.jpg,https://www.usnews.com/img/college-photo_29879_170x170mm.jpg,930,12536,Omaha,universityofnebraskaomaha,68182,,86,,,,NE,-1,3.4,university-of-nebraska-omaha,National Universities,231-300,overall,181394,FALSE,TRUE,2.6,22035,,University of Nebraska--Omaha,national-universities,,University of Nebraska Omaha,national-universities,-1,public,,rnp,2554
,,FALSE,19,https://www.usnews.com/img/college-photo_7911.jpg,https://www.usnews.com/img/college-photo_7911_170x170mm.jpg,900,24714,Las Vegas,universityofnevadalasvegas,89154,,83,,,,NV,-1,3.3,unlv,National Universities,231-300,overall,182281,FALSE,TRUE,2.5,21498,2.2,University of Nevada--Las Vegas,national-universities,,UNLV University of Nevada Las Vegas,national-universities,-1,public,,rnp,2569
,,FALSE,20,https://www.usnews.com/img/college-photo_18081.jpg,https://www.usnews.com/img/college-photo_18081_170x170mm.jpg,950,6442,New Orleans,universityofneworleans,70148,,60,,,,LA,-1,3.2,university-of-new-orleans,National Universities,231-300,overall,159939,FALSE,TRUE,2.4,13530,,University of New Orleans,national-universities,,,national-universities,-1,public,,rnp,2015
,,FALSE,21,https://www.usnews.com/img/college-photo_17832.jpg,https://www.usnews.com/img/college-photo_17832_170x170mm.jpg,910,16281,Greensboro,universityofnorthcarolinagreensboro,27402,,74,,,,NC,-1,3.8,unc-greensboro,National Universities,231-300,overall,199148,FALSE,TRUE,2.6,22410,,University of North Carolina--Greensboro,national-universities,,UNC University of North Carolina Greensboro,national-universities,-1,public,,rnp,2976
,,FALSE,19,https://www.usnews.com/img/college-photo_3260.jpg,https://www.usnews.com/img/college-photo_3260_170x170mm.jpg,930,9503,Greeley,universityofnortherncolorado,80639,,90,,,,CO,-1,3.3,university-of-northern-colorado,National Universities,231-300,overall,127741,FALSE,TRUE,2.3,20474,,University of Northern Colorado,national-universities,,,national-universities,-1,public,,rnp,1349
,,FALSE,20,https://www.usnews.com/img/college-photo_12166.jpg,https://www.usnews.com/img/college-photo_12166_170x170mm.jpg,980,31209,Denton,universityofnorthtexas,76203,,72,,,,TX,-1,,unt,National Universities,231-300,overall,227216,FALSE,TRUE,2.4,23716,,University of North Texas,national-universities,,,national-universities,-1,public,,rnp,3594
,,FALSE,20,https://www.usnews.com/img/college-photo_26309.jpg,https://www.usnews.com/img/college-photo_26309_170x170mm.jpg,875,11761,Mobile,universityofsouthalabama,36688,,80,,,,AL,-1,3.5,south-alabama,National Universities,231-300,overall,102094,FALSE,TRUE,2.1,19586,2.6,University of South Alabama,national-universities,,,national-universities,-1,public,,rnp,1057
,,FALSE,20,https://www.usnews.com/dims4/USNEWS/a2a27f9/17177859217/resize/800x540/quality/85/?url=www.usnews.com%2Fcmsmedia%2Ffd%2Fb7%2F4d2a28e845318a9fc02bfd35ef69%2F160727-university-of-southern-mississippi-hero-stock.jpg,https://www.usnews.com/dims4/USNEWS/4c8fd72/17177859217/resize/170x170/quality/85/?url=www.usnews.com%2Fcmsmedia%2Ffd%2Fb7%2F4d2a28e845318a9fc02bfd35ef69%2F160727-university-of-southern-mississippi-hero-stock.jpg,940,11779,Hattiesburg,universityofsouthernmississippi,39406,,60,,,,MS,-1,3.3,university-of-southern-mississippi,National Universities,231-300,overall,176372,FALSE,TRUE,2.2,9854,,University of Southern Mississippi,national-universities,,,national-universities,-1,public,,rnp,2441
,,FALSE,20,https://www.usnews.com/img/college-photo_21936.jpg,https://www.usnews.com/img/college-photo_21936_170x170mm.jpg,950,32775,Arlington,universityoftexasarlington,76019,,70,,,,TX,-1,,university-of-texas-arlington,National Universities,231-300,overall,228769,FALSE,TRUE,2.7,25152,2.4,University of Texas--Arlington,national-universities,,UT Arlington University of Texas Arlington,national-universities,-1,public,,rnp,3656
,,FALSE,17,https://www.usnews.com/img/college-photo_6429.jpg,https://www.usnews.com/img/college-photo_6429_170x170mm.jpg,810,20521,El Paso,universityoftexaselpaso,79968,,100,,,,TX,-1,3.2,utep,National Universities,231-300,overall,228796,FALSE,TRUE,2.3,21396,2.1,University of Texas--El Paso,national-universities,,UTEP University of Texas El Paso,national-universities,-1,public,,rnp,3661
,,FALSE,18,,,850,24433,Edinburg,universityoftexasriograndevalley,78539,,63,,,,TX,-1,,university-of-texas-rio-grande-valley,National Universities,231-300,overall,227368,FALSE,TRUE,,17230,2.1,University of Texas--Rio Grande Valley,national-universities,,,national-universities,-1,public,,rnp,666978
,,FALSE,20,https://www.usnews.com/img/college-photo_31070.jpg,https://www.usnews.com/img/college-photo_31070_170x170mm.jpg,920,24724,San Antonio,universityoftexassanantonio,78249,,76,,,,TX,-1,,utsa,National Universities,231-300,overall,229027,FALSE,TRUE,2.4,23379,2.1,University of Texas--San Antonio,national-universities,,University of Texas San Antonio,national-universities,-1,public,,rnp,10115
,,FALSE,19,https://www.usnews.com/img/college-photo_16472.jpg,https://www.usnews.com/img/college-photo_16472_170x170mm.jpg,860,3082,Williamsburg,universityofthecumberlands,40769,,71,,,,KY,-1,3.5,university-of-the-cumberlands,National Universities,231-300,overall,156541,FALSE,TRUE,,23000,,University of the Cumberlands,national-universities,,,national-universities,-1,private,,rnp,1962
,,FALSE,20,https://www.usnews.com/img/college-photo_21594.jpg,https://www.usnews.com/img/college-photo_21594_170x170mm.jpg,920,16247,Toledo,universityoftoledo,43606,,94,,,,OH,-1,3.4,university-of-toledo,National Universities,231-300,overall,206084,FALSE,TRUE,2.3,18578,2.1,University of Toledo,national-universities,,,national-universities,-1,public,,rnp,3131
,,FALSE,21,https://www.usnews.com/img/college-photo_11238.jpg,https://www.usnews.com/img/college-photo_11238_170x170mm.jpg,930,10082,Pensacola,universityofwestflorida,32514,,41,,,,FL,-1,3.6,west-florida,National Universities,231-300,overall,138354,FALSE,TRUE,,18628,2.1,University of West Florida,national-universities,,,national-universities,-1,public,,rnp,3955
,,FALSE,18,https://www.usnews.com/img/college-photo_8676.jpg,https://www.usnews.com/img/college-photo_8676_170x170mm.jpg,870,11155,Carrollton,universityofwestgeorgia,30118,,59,,,,GA,-1,3.2,university-west-georgia,National Universities,231-300,overall,141334,FALSE,TRUE,2,20406,,University of West Georgia,national-universities,,,national-universities,-1,public,,rnp,1601
,,FALSE,20,,,,21375,Milwaukee,universityofwisconsinmilwaukee,53201,,72,,,,WI,-1,3.1,uw-milwaukee,National Universities,231-300,overall,240453,FALSE,TRUE,2.8,19851,2.4,University of Wisconsin--Milwaukee,national-universities,,University of Wisconsin Milwaukee,national-universities,-1,public,,rnp,3896
,,FALSE,19,,,890,8780,Valdosta,valdostastateuniversity,31698,,65,,,,GA,-1,3.2,valdosta-state,National Universities,231-300,overall,141264,FALSE,TRUE,2.1,17196,,Valdosta State University,national-universities,,,national-universities,-1,public,,rnp,1599
,,FALSE,21,,,915,11823,Wichita,wichitastateuniversity,67260,,92,,,,KS,-1,3.4,wichita-state-university,National Universities,231-300,overall,156125,FALSE,TRUE,2.3,17270,2.2,Wichita State University,national-universities,,,national-universities,-1,public,,rnp,1950
,,FALSE,18,,,930,12504,Dayton,wrightstateuniversity,45435,,95,,,,OH,-1,3.3,wright-state,National Universities,231-300,overall,206604,FALSE,TRUE,2.3,17350,2.2,Wright State University,national-universities,,,national-universities,-1,public,,rnp,9168
,,FALSE,,,,,1264,San Diego,alliantinternationaluniversity,92131,,,,,,CA,-2,2.8,alliant-international-university,National Universities,Unranked,overall,110468,FALSE,TRUE,,17510,,Alliant International University,national-universities,,,national-universities,-2,private,,ur,1158
,School refused to fill out U.S. News statistical survey. Data that appear are from school in previous years or from another source such as the National Center for Education Statistics.,TRUE,,,,,,Orange,argosyuniversity,92868,,,,,,CA,-2,,argosy-university,National Universities,Unranked,overall,145770,FALSE,TRUE,,13152,,Argosy University,national-universities,,Argosy University Chicago,national-universities,-2,proprietary,,ur,21799
,School refused to fill out U.S. News statistical survey. Data that appear are from school in previous years or from another source such as the National Center for Education Statistics.,TRUE,,,,,,San Francisco,californiainstituteofintegralstudies,94103,,,,,,CA,-2,,california-institute-of-integral-studies,National Universities,Unranked,overall,110316,FALSE,TRUE,,28467,,California Institute of Integral Studies,national-universities,,,national-universities,-2,private,,ur,12154
,School refused to fill out U.S. News statistical survey. Data that appear are from school in previous years or from another source such as the National Center for Education Statistics.,TRUE,,,,,,Minneapolis,capellauniversity,55403,,,,,,MN,-2,,capella-university,National Universities,Unranked,overall,413413,FALSE,TRUE,,13998,,Capella University,national-universities,,,national-universities,-2,proprietary,,ur,32673
,School refused to fill out U.S. News statistical survey. Data that appear are from school in previous years or from another source such as the National Center for Education Statistics.,TRUE,,,,,,Pocatello,idahostateuniversity,83209,,,,,,ID,-2,,idaho-state,National Universities,Unranked,overall,142276,FALSE,TRUE,2.4,21023,2.1,Idaho State University,national-universities,,,national-universities,-2,public,,ur,1620
,,FALSE,,,,,133,San Diego,northcentraluniversity,86314,,,,,,AZ,-2,,northcentral-university,National Universities,Unranked,overall,444130,FALSE,TRUE,,10368,,Northcentral University,national-universities,,,national-universities,-2,proprietary,,ur,666122
,School refused to fill out U.S. News statistical survey. Data that appear are from school in previous years or from another source such as the National Center for Education Statistics.,TRUE,,,,,,Cypress,tridentuniversityinternational,90630,,96,,,,CA,-2,,trident-university-international,National Universities,Unranked,overall,450979,FALSE,TRUE,,9000,,Trident University International,national-universities,,,national-universities,-2,proprietary,,ur,41279
,School refused to fill out U.S. News statistical survey. Data that appear are from school in previous years or from another source such as the National Center for Education Statistics.,TRUE,,https://www.usnews.com/img/college-photo_14624.jpg,https://www.usnews.com/img/college-photo_14624_170x170mm.jpg,,,Cincinnati,unioninstituteanduniversity,45206,,,,,,OH,-2,,union-institute,National Universities,Unranked,overall,206279,FALSE,TRUE,,12416,,Union Institute and University,national-universities,,,national-universities,-2,private,,ur,10923
,School refused to fill out U.S. News statistical survey. Data that appear are from school in previous years or from another source such as the National Center for Education Statistics.,TRUE,,,,,,Phoenix,universityofphoenix,85034,,,,,,AZ,-2,,university-of-phoenix,National Universities,Unranked,overall,372213,FALSE,TRUE,,9690,,University of Phoenix,national-universities,,,national-universities,-2,proprietary,,ur,209885
,School refused to fill out U.S. News statistical survey. Data that appear are from school in previous years or from another source such as the National Center for Education Statistics.,TRUE,,,,,,Minneapolis,waldenuniversity,55401,,,,,,MN,-2,,walden-university,National Universities,Unranked,overall,125231,FALSE,TRUE,,12075,,Walden University,national-universities,,,national-universities,-2,proprietary,,ur,25042
,,FALSE,,,,,8873,New Castle,wilmingtonuniversity,19720,,100,,,,DE,-2,,wilmington-university,National Universities,Unranked,overall,131113,FALSE,TRUE,,10940,,Wilmington University,national-universities,,,national-universities,-2,private,,ur,7948
